IdSensore,Tipologia,Unità DiMisura,IdStazione,NomeStazione,Quota,Provincia,NomeComune,Indirizzo,CGB_Nord,CGB_Est,lng,lat,location
2001,Temperatura,°C,100,Milano - Lambrate,120,MI,Milano,parco Lambro - acquedotto,5038191,1520147,9.25751572,45.49678183,"(45.49678183, 9.25751572)"
2002,Umidità Relativa,%,100,Milano - Lambrate,120,MI,Milano,parco Lambro - acquedotto,5038191,1520147,9.25751572,45.49678183,"(45.49678183, 9.25751572)"
2006,Precipitazione,mm,100,Milano - Lambrate,120,MI,Milano,parco Lambro - acquedotto,5038191,1520147,9.25751572,45.49678183,"(45.49678183, 9.25751572)"
2008,Radiazione Globale,W/mq,100,Milano - Lambrate,120,MI,Milano,parco Lambro - acquedotto,5038191,1520147,9.25751572,45.49678183,"(45.49678183, 9.25751572)"
2039,Temperatura,°C,102,S.Colombano al Lambro (ersaf) *,80,MI,San Colombano al Lambro,via Serafina - c/o Vigneto Sperimentale Moretto,5003859,1538227,9.48625681,45.18700408,"(45.18700408, 9.48625681)"
2040,Umidità Relativa,%,102,S.Colombano al Lambro (ersaf) *,80,MI,San Colombano al Lambro,via Serafina - c/o Vigneto Sperimentale Moretto,5003859,1538227,9.48625681,45.18700408,"(45.18700408, 9.48625681)"
2044,Radiazione Globale,W/mq,102,S.Colombano al Lambro (ersaf) *,80,MI,San Colombano al Lambro,via Serafina - c/o Vigneto Sperimentale Moretto,5003859,1538227,9.48625681,45.18700408,"(45.18700408, 9.48625681)"
2046,Precipitazione,mm,102,S.Colombano al Lambro (ersaf) *,80,MI,San Colombano al Lambro,via Serafina - c/o Vigneto Sperimentale Moretto,5003859,1538227,9.48625681,45.18700408,"(45.18700408, 9.48625681)"
2082,Temperatura,°C,106,Varzi (ersaf),500,PV,Varzi,Nivione,4963427,1515446,9.19503519,44.82391153,"(44.82391153, 9.19503519)"
2083,Umidità Relativa,%,106,Varzi (ersaf),500,PV,Varzi,Nivione,4963427,1515446,9.19503519,44.82391153,"(44.82391153, 9.19503519)"
2084,Radiazione Globale,W/mq,106,Varzi (ersaf),500,PV,Varzi,Nivione,4963427,1515446,9.19503519,44.82391153,"(44.82391153, 9.19503519)"
2089,Precipitazione,mm,106,Varzi (ersaf),500,PV,Varzi,Nivione,4963427,1515446,9.19503519,44.82391153,"(44.82391153, 9.19503519)"
2096,Temperatura,°C,107,Sondrio (ersaf),307,SO,Sondrio,via Valeriana 32 - c/o Ist. Fondazione Fojanini,5112818,1565532,9.84850281,46.16559603,"(46.16559603, 9.84850281)"
2097,Umidità Relativa,%,107,Sondrio (ersaf),307,SO,Sondrio,via Valeriana 32 - c/o Ist. Fondazione Fojanini,5112818,1565532,9.84850281,46.16559603,"(46.16559603, 9.84850281)"
2098,Radiazione Globale,W/mq,107,Sondrio (ersaf),307,SO,Sondrio,via Valeriana 32 - c/o Ist. Fondazione Fojanini,5112818,1565532,9.84850281,46.16559603,"(46.16559603, 9.84850281)"
2103,Precipitazione,mm,107,Sondrio (ersaf),307,SO,Sondrio,via Valeriana 32 - c/o Ist. Fondazione Fojanini,5112818,1565532,9.84850281,46.16559603,"(46.16559603, 9.84850281)"
2110,Temperatura,°C,108,Samolaco (ersaf),206,SO,Samolaco,via Vignola,5120391,1532923,9.42666611,46.236112,"(46.236112, 9.42666611)"
2111,Umidità Relativa,%,108,Samolaco (ersaf),206,SO,Samolaco,via Vignola,5120391,1532923,9.42666611,46.236112,"(46.236112, 9.42666611)"
2112,Radiazione Globale,W/mq,108,Samolaco (ersaf),206,SO,Samolaco,via Vignola,5120391,1532923,9.42666611,46.236112,"(46.236112, 9.42666611)"
2116,Precipitazione,mm,108,Samolaco (ersaf),206,SO,Samolaco,via Vignola,5120391,1532923,9.42666611,46.236112,"(46.236112, 9.42666611)"
2122,Temperatura,°C,109,S.Angelo Lodigiano,60,LO,Sant'Angelo Lodigiano,via Mulino 3 - c/o Ist. cerealicoltura,5011998,1529815,9.3796695,45.26067169,"(45.26067169, 9.3796695)"
2123,Umidità Relativa,%,109,S.Angelo Lodigiano,60,LO,Sant'Angelo Lodigiano,via Mulino 3 - c/o Ist. cerealicoltura,5011998,1529815,9.3796695,45.26067169,"(45.26067169, 9.3796695)"
2124,Radiazione Globale,W/mq,109,S.Angelo Lodigiano,60,LO,Sant'Angelo Lodigiano,via Mulino 3 - c/o Ist. cerealicoltura,5011998,1529815,9.3796695,45.26067169,"(45.26067169, 9.3796695)"
2129,Precipitazione,mm,109,S.Angelo Lodigiano,60,LO,Sant'Angelo Lodigiano,via Mulino 3 - c/o Ist. cerealicoltura,5011998,1529815,9.3796695,45.26067169,"(45.26067169, 9.3796695)"
2134,Temperatura,°C,110,Palidano di Gonzaga,22,MN,Gonzaga,strada Begozzo 9 - c/o ITA Strozzi,4980543,1639424,10.767532,44.96447231,"(44.96447231, 10.767532)"
2135,Umidità Relativa,%,110,Palidano di Gonzaga,22,MN,Gonzaga,strada Begozzo 9 - c/o ITA Strozzi,4980543,1639424,10.767532,44.96447231,"(44.96447231, 10.767532)"
2136,Radiazione Globale,W/mq,110,Palidano di Gonzaga,22,MN,Gonzaga,strada Begozzo 9 - c/o ITA Strozzi,4980543,1639424,10.767532,44.96447231,"(44.96447231, 10.767532)"
2140,Precipitazione,mm,110,Palidano di Gonzaga,22,MN,Gonzaga,strada Begozzo 9 - c/o ITA Strozzi,4980543,1639424,10.767532,44.96447231,"(44.96447231, 10.767532)"
2146,Temperatura,°C,111,Moggio,"1,234",LC,Cassina Valsassina,SP 64 km10+900,5084533,1538610,9.49750669,45.91309714,"(45.91309714, 9.49750669)"
2147,Umidità Relativa,%,111,Moggio,"1,234",LC,Cassina Valsassina,SP 64 km10+900,5084533,1538610,9.49750669,45.91309714,"(45.91309714, 9.49750669)"
2148,Radiazione Globale,W/mq,111,Moggio,"1,234",LC,Cassina Valsassina,SP 64 km10+900,5084533,1538610,9.49750669,45.91309714,"(45.91309714, 9.49750669)"
2152,Precipitazione,mm,111,Moggio,"1,234",LC,Cassina Valsassina,SP 64 km10+900,5084533,1538610,9.49750669,45.91309714,"(45.91309714, 9.49750669)"
2187,Temperatura,°C,114,Landriano (ersaf) *,88,PV,Landriano,c/o Cascina Marianna,5018638,1520741,9.26429397,45.32076661,"(45.32076661, 9.26429397)"
2188,Umidità Relativa,%,114,Landriano (ersaf) *,88,PV,Landriano,c/o Cascina Marianna,5018638,1520741,9.26429397,45.32076661,"(45.32076661, 9.26429397)"
2190,Radiazione Globale,W/mq,114,Landriano (ersaf) *,88,PV,Landriano,c/o Cascina Marianna,5018638,1520741,9.26429397,45.32076661,"(45.32076661, 9.26429397)"
2195,Precipitazione,mm,114,Landriano (ersaf) *,88,PV,Landriano,c/o Cascina Marianna,5018638,1520741,9.26429397,45.32076661,"(45.32076661, 9.26429397)"
2245,Temperatura,°C,117,Edolo - via Morino 5,699,BS,Edolo,"c/o Ist. ""Meneghini""",5114458,1602948,10.33340097,46.17572567,"(46.17572567, 10.33340097)"
2246,Umidità Relativa,%,117,Edolo - via Morino 5,699,BS,Edolo,"c/o Ist. ""Meneghini""",5114458,1602948,10.33340097,46.17572567,"(46.17572567, 10.33340097)"
2251,Precipitazione,mm,117,Edolo - via Morino 5,699,BS,Edolo,"c/o Ist. ""Meneghini""",5114458,1602948,10.33340097,46.17572567,"(46.17572567, 10.33340097)"
2270,Temperatura,°C,119,Cornalita,700,BG,San Giovanni Bianco,c\o agriturismo EDEN,5081200,1550237,9.64706978,45.88234925,"(45.88234925, 9.64706978)"
2271,Umidità Relativa,%,119,Cornalita,700,BG,San Giovanni Bianco,c\o agriturismo EDEN,5081200,1550237,9.64706978,45.88234925,"(45.88234925, 9.64706978)"
2275,Radiazione Globale,W/mq,119,Cornalita,700,BG,San Giovanni Bianco,c\o agriturismo EDEN,5081200,1550237,9.64706978,45.88234925,"(45.88234925, 9.64706978)"
2278,Precipitazione,mm,119,Cornalita,700,BG,San Giovanni Bianco,c\o agriturismo EDEN,5081200,1550237,9.64706978,45.88234925,"(45.88234925, 9.64706978)"
2327,Temperatura,°C,123,Cavenago d` Adda,67,LO,Cavenago d'Adda,Caviaga - cascina Casoni,5013099,1544093,9.56174517,45.26983092,"(45.26983092, 9.56174517)"
2328,Umidità Relativa,%,123,Cavenago d` Adda,67,LO,Cavenago d'Adda,Caviaga - cascina Casoni,5013099,1544093,9.56174517,45.26983092,"(45.26983092, 9.56174517)"
2333,Radiazione Globale,W/mq,123,Cavenago d` Adda,67,LO,Cavenago d'Adda,Caviaga - cascina Casoni,5013099,1544093,9.56174517,45.26983092,"(45.26983092, 9.56174517)"
2336,Precipitazione,mm,123,Cavenago d` Adda,67,LO,Cavenago d'Adda,Caviaga - cascina Casoni,5013099,1544093,9.56174517,45.26983092,"(45.26983092, 9.56174517)"
2361,Temperatura,°C,125,Castello d` Agogna (ersaf) *,106,PV,Castello d'Agogna,SP 26 - c/o Ente Risi,5008922,1475121,8.68270731,45.23317633,"(45.23317633, 8.68270731)"
2362,Umidità Relativa,%,125,Castello d` Agogna (ersaf) *,106,PV,Castello d'Agogna,SP 26 - c/o Ente Risi,5008922,1475121,8.68270731,45.23317633,"(45.23317633, 8.68270731)"
2364,Radiazione Globale,W/mq,125,Castello d` Agogna (ersaf) *,106,PV,Castello d'Agogna,SP 26 - c/o Ente Risi,5008922,1475121,8.68270731,45.23317633,"(45.23317633, 8.68270731)"
2368,Precipitazione,mm,125,Castello d` Agogna (ersaf) *,106,PV,Castello d'Agogna,SP 26 - c/o Ente Risi,5008922,1475121,8.68270731,45.23317633,"(45.23317633, 8.68270731)"
2373,Temperatura,°C,126,Casatenovo prato,360,LC,Casatenovo,via Monteregio 13,5061000,1524093,9.30914683,45.70195425,"(45.70195425, 9.30914683)"
2374,Umidità Relativa,%,126,Casatenovo prato,360,LC,Casatenovo,via Monteregio 13,5061000,1524093,9.30914683,45.70195425,"(45.70195425, 9.30914683)"
2377,Precipitazione,mm,126,Casatenovo prato,360,LC,Casatenovo,via Monteregio 13,5061000,1524093,9.30914683,45.70195425,"(45.70195425, 9.30914683)"
2384,Radiazione Globale,W/mq,127,Casatenovo tetto,360,LC,Casatenovo,via Monteregio 13,5061000,1524093,9.30914683,45.70195425,"(45.70195425, 9.30914683)"
2385,Precipitazione,mm,127,Casatenovo tetto,360,LC,Casatenovo,via Monteregio 13,5061000,1524093,9.30914683,45.70195425,"(45.70195425, 9.30914683)"
2400,Temperatura,°C,129,Capo di ponte,362,BS,Capo di Ponte,via Briscioli 42,5097897,1603931,10.34250956,46.02656822,"(46.02656822, 10.34250956)"
2401,Umidità Relativa,%,129,Capo di ponte,362,BS,Capo di Ponte,via Briscioli 42,5097897,1603931,10.34250956,46.02656822,"(46.02656822, 10.34250956)"
2404,Radiazione Globale,W/mq,129,Capo di ponte,362,BS,Capo di Ponte,via Briscioli 42,5097897,1603931,10.34250956,46.02656822,"(46.02656822, 10.34250956)"
2408,Precipitazione,mm,129,Capo di ponte,362,BS,Capo di Ponte,via Briscioli 42,5097897,1603931,10.34250956,46.02656822,"(46.02656822, 10.34250956)"
2414,Temperatura,°C,130,Brescia - ITAS pastori (ersaf) *,149,BS,Brescia,viale della Bornata 110,5042196,1598530,10.26138297,45.52615236,"(45.52615236, 10.26138297)"
8007,Temperatura,°C,856,Fortunago *,501,PV,Fortunago,POLINAGO,4973268,1515419,9.19499417,44.91250111,"(44.91250111, 9.19499417)"
2415,Umidità Relativa,%,130,Brescia - ITAS pastori (ersaf) *,149,BS,Brescia,viale della Bornata 110,5042196,1598530,10.26138297,45.52615236,"(45.52615236, 10.26138297)"
2417,Precipitazione,mm,130,Brescia - ITAS pastori (ersaf) *,149,BS,Brescia,viale della Bornata 110,5042196,1598530,10.26138297,45.52615236,"(45.52615236, 10.26138297)"
2433,Temperatura,°C,132,Bergamo - Stezzano,211,BG,Bergamo,via Stezzano 24,5056562,1551349,9.65877947,45.66052617,"(45.66052617, 9.65877947)"
2434,Umidità Relativa,%,132,Bergamo - Stezzano,211,BG,Bergamo,via Stezzano 24,5056562,1551349,9.65877947,45.66052617,"(45.66052617, 9.65877947)"
2435,Radiazione Globale,W/mq,132,Bergamo - Stezzano,211,BG,Bergamo,via Stezzano 24,5056562,1551349,9.65877947,45.66052617,"(45.66052617, 9.65877947)"
2441,Precipitazione,mm,132,Bergamo - Stezzano,211,BG,Bergamo,via Stezzano 24,5056562,1551349,9.65877947,45.66052617,"(45.66052617, 9.65877947)"
2447,Temperatura,°C,133,Bema,800,SO,Bema,pressi  ripetitori RAI,5105988,1544010,9.569112,46.1058615,"(46.1058615, 9.569112)"
2448,Umidità Relativa,%,133,Bema,800,SO,Bema,pressi  ripetitori RAI,5105988,1544010,9.569112,46.1058615,"(46.1058615, 9.569112)"
2449,Radiazione Globale,W/mq,133,Bema,800,SO,Bema,pressi  ripetitori RAI,5105988,1544010,9.569112,46.1058615,"(46.1058615, 9.569112)"
2452,Precipitazione,mm,133,Bema,800,SO,Bema,pressi  ripetitori RAI,5105988,1544010,9.569112,46.1058615,"(46.1058615, 9.569112)"
2459,Temperatura,°C,134,Bargnano,93,BS,Corzano,via Silvio Pellico,5031679,1581299,10.03903128,45.43372814,"(45.43372814, 10.03903128)"
2460,Umidità Relativa,%,134,Bargnano,93,BS,Corzano,via Silvio Pellico,5031679,1581299,10.03903128,45.43372814,"(45.43372814, 10.03903128)"
2461,Radiazione Globale,W/mq,134,Bargnano,93,BS,Corzano,via Silvio Pellico,5031679,1581299,10.03903128,45.43372814,"(45.43372814, 10.03903128)"
2465,Precipitazione,mm,134,Bargnano,93,BS,Corzano,via Silvio Pellico,5031679,1581299,10.03903128,45.43372814,"(45.43372814, 10.03903128)"
2485,Temperatura,°C,136,Persico Dosimo,44,CR,Persico Dosimo,SP40 km14 - c/o ist. Agrario Stanga,5001693,1583242,10.05882758,45.16363125,"(45.16363125, 10.05882758)"
2486,Umidità Relativa,%,136,Persico Dosimo,44,CR,Persico Dosimo,SP40 km14 - c/o ist. Agrario Stanga,5001693,1583242,10.05882758,45.16363125,"(45.16363125, 10.05882758)"
2488,Radiazione Globale,W/mq,136,Persico Dosimo,44,CR,Persico Dosimo,SP40 km14 - c/o ist. Agrario Stanga,5001693,1583242,10.05882758,45.16363125,"(45.16363125, 10.05882758)"
2492,Precipitazione,mm,136,Persico Dosimo,44,CR,Persico Dosimo,SP40 km14 - c/o ist. Agrario Stanga,5001693,1583242,10.05882758,45.16363125,"(45.16363125, 10.05882758)"
2497,Temperatura,°C,137,Rivolta d` Adda (ersaf) *,102,CR,Rivolta d'Adda,c\o Ist. Spallanzani,5032437,1540748,9.52069894,45.44409211,"(45.44409211, 9.52069894)"
2498,Umidità Relativa,%,137,Rivolta d` Adda (ersaf) *,102,CR,Rivolta d'Adda,c\o Ist. Spallanzani,5032437,1540748,9.52069894,45.44409211,"(45.44409211, 9.52069894)"
2502,Precipitazione,mm,137,Rivolta d` Adda (ersaf) *,102,CR,Rivolta d'Adda,c\o Ist. Spallanzani,5032437,1540748,9.52069894,45.44409211,"(45.44409211, 9.52069894)"
2524,Temperatura,°C,139,Mantova Cerese,19,MN,Virgilio,via T.Nuvolari loc. Virgilio c/o campo sportivo,4997314,1641035,10.79265692,45.11504753,"(45.11504753, 10.79265692)"
2527,Umidità Relativa,%,139,Mantova Cerese,19,MN,Virgilio,via T.Nuvolari loc. Virgilio c/o campo sportivo,4997314,1641035,10.79265692,45.11504753,"(45.11504753, 10.79265692)"
2533,Radiazione Globale,W/mq,139,Mantova Cerese,19,MN,Virgilio,via T.Nuvolari loc. Virgilio c/o campo sportivo,4997314,1641035,10.79265692,45.11504753,"(45.11504753, 10.79265692)"
2535,Precipitazione,mm,139,Mantova Cerese,19,MN,Virgilio,via T.Nuvolari loc. Virgilio c/o campo sportivo,4997314,1641035,10.79265692,45.11504753,"(45.11504753, 10.79265692)"
2612,Umidità Relativa,%,212,Canzo - M. Prasanto,"1,233",CO,Canzo,via San Miro,5077245,1524728,9.31813681,45.84814356,"(45.84814356, 9.31813681)"
2613,Temperatura,°C,212,Canzo - M. Prasanto,"1,233",CO,Canzo,via San Miro,5077245,1524728,9.31813681,45.84814356,"(45.84814356, 9.31813681)"
2614,Precipitazione,mm,212,Canzo - M. Prasanto,"1,233",CO,Canzo,via San Miro,5077245,1524728,9.31813681,45.84814356,"(45.84814356, 9.31813681)"
2620,Temperatura,°C,214,Bigarello,15,MN,Bigarello,via Carpaneta 7,5005643,1648276,10.887137,45.18849864,"(45.18849864, 10.887137)"
2621,Umidità Relativa,%,214,Bigarello,15,MN,Bigarello,via Carpaneta 7,5005643,1648276,10.887137,45.18849864,"(45.18849864, 10.887137)"
2623,Radiazione Globale,W/mq,214,Bigarello,15,MN,Bigarello,via Carpaneta 7,5005643,1648276,10.887137,45.18849864,"(45.18849864, 10.887137)"
2626,Precipitazione,mm,214,Bigarello,15,MN,Bigarello,via Carpaneta 7,5005643,1648276,10.887137,45.18849864,"(45.18849864, 10.887137)"
4001,Temperatura,°C,140,Motta Visconti (shake Up),100,MI,Motta Visconti,via A. de Gasperi - c/o campo sportivo comunale,5014293,1499131,8.98857592,45.28196356,"(45.28196356, 8.98857592)"
4002,Umidità Relativa,%,140,Motta Visconti (shake Up),100,MI,Motta Visconti,via A. de Gasperi - c/o campo sportivo comunale,5014293,1499131,8.98857592,45.28196356,"(45.28196356, 8.98857592)"
4004,Radiazione Globale,W/mq,140,Motta Visconti (shake Up),100,MI,Motta Visconti,via A. de Gasperi - c/o campo sportivo comunale,5014293,1499131,8.98857592,45.28196356,"(45.28196356, 8.98857592)"
4007,Velocità Vento,m/s,140,Motta Visconti (shake Up),100,MI,Motta Visconti,via A. de Gasperi - c/o campo sportivo comunale,5014293,1499131,8.98857592,45.28196356,"(45.28196356, 8.98857592)"
4008,Precipitazione,mm,140,Motta Visconti (shake Up),100,MI,Motta Visconti,via A. de Gasperi - c/o campo sportivo comunale,5014293,1499131,8.98857592,45.28196356,"(45.28196356, 8.98857592)"
4009,Temperatura,°C,141,Vertemate,310,CO,Vertemate con Minoprio,viale Raimondi 54 - c/o Fond. Minoprio,5062852,1506680,9.08549392,45.71901203,"(45.71901203, 9.08549392)"
4010,Umidità Relativa,%,141,Vertemate,310,CO,Vertemate con Minoprio,viale Raimondi 54 - c/o Fond. Minoprio,5062852,1506680,9.08549392,45.71901203,"(45.71901203, 9.08549392)"
4012,Radiazione Globale,W/mq,141,Vertemate,310,CO,Vertemate con Minoprio,viale Raimondi 54 - c/o Fond. Minoprio,5062852,1506680,9.08549392,45.71901203,"(45.71901203, 9.08549392)"
4015,Velocità Vento,m/s,141,Vertemate,310,CO,Vertemate con Minoprio,viale Raimondi 54 - c/o Fond. Minoprio,5062852,1506680,9.08549392,45.71901203,"(45.71901203, 9.08549392)"
4016,Precipitazione,mm,141,Vertemate,310,CO,Vertemate con Minoprio,viale Raimondi 54 - c/o Fond. Minoprio,5062852,1506680,9.08549392,45.71901203,"(45.71901203, 9.08549392)"
4017,Temperatura,°C,142,Caiolo,274,SO,Caiolo,via Palù - c/o aeroporto di Caiolo,5111588,1561222,9.79252269,46.15492878,"(46.15492878, 9.79252269)"
4018,Umidità Relativa,%,142,Caiolo,274,SO,Caiolo,via Palù - c/o aeroporto di Caiolo,5111588,1561222,9.79252269,46.15492878,"(46.15492878, 9.79252269)"
4024,Velocità Vento,m/s,142,Caiolo,274,SO,Caiolo,via Palù - c/o aeroporto di Caiolo,5111588,1561222,9.79252269,46.15492878,"(46.15492878, 9.79252269)"
4025,Precipitazione,mm,142,Caiolo,274,SO,Caiolo,via Palù - c/o aeroporto di Caiolo,5111588,1561222,9.79252269,46.15492878,"(46.15492878, 9.79252269)"
4026,Temperatura,°C,143,Livigno - Passo Foscagno,"2,250",SO,Livigno,SS 301 km22+950 - c/o ripetitori RAI,5149715,1592690,10.20750306,46.49442656,"(46.49442656, 10.20750306)"
4027,Umidità Relativa,%,143,Livigno - Passo Foscagno,"2,250",SO,Livigno,SS 301 km22+950 - c/o ripetitori RAI,5149715,1592690,10.20750306,46.49442656,"(46.49442656, 10.20750306)"
4029,Radiazione Globale,W/mq,143,Livigno - Passo Foscagno,"2,250",SO,Livigno,SS 301 km22+950 - c/o ripetitori RAI,5149715,1592690,10.20750306,46.49442656,"(46.49442656, 10.20750306)"
4032,Velocità Vento,m/s,143,Livigno - Passo Foscagno,"2,250",SO,Livigno,SS 301 km22+950 - c/o ripetitori RAI,5149715,1592690,10.20750306,46.49442656,"(46.49442656, 10.20750306)"
4033,Precipitazione,mm,143,Livigno - Passo Foscagno,"2,250",SO,Livigno,SS 301 km22+950 - c/o ripetitori RAI,5149715,1592690,10.20750306,46.49442656,"(46.49442656, 10.20750306)"
4034,Temperatura,°C,144,Spluga,"1,915",SO,Madesimo,SS36 km143+500 - Stuetta c/o diga EDIPOWER,5146535,1526752,9.34812689,46.47166819,"(46.47166819, 9.34812689)"
4035,Umidità Relativa,%,144,Spluga,"1,915",SO,Madesimo,SS36 km143+500 - Stuetta c/o diga EDIPOWER,5146535,1526752,9.34812689,46.47166819,"(46.47166819, 9.34812689)"
4037,Radiazione Globale,W/mq,144,Spluga,"1,915",SO,Madesimo,SS36 km143+500 - Stuetta c/o diga EDIPOWER,5146535,1526752,9.34812689,46.47166819,"(46.47166819, 9.34812689)"
4040,Velocità Vento,m/s,144,Spluga,"1,915",SO,Madesimo,SS36 km143+500 - Stuetta c/o diga EDIPOWER,5146535,1526752,9.34812689,46.47166819,"(46.47166819, 9.34812689)"
4041,Precipitazione,mm,144,Spluga,"1,915",SO,Madesimo,SS36 km143+500 - Stuetta c/o diga EDIPOWER,5146535,1526752,9.34812689,46.47166819,"(46.47166819, 9.34812689)"
4042,Temperatura,°C,145,Darfo (shake up),222,BS,Darfo Boario Terme,via De Amicis 6 - c/o asilo nido,5080810,1591399,10.17736553,45.87460256,"(45.87460256, 10.17736553)"
4043,Umidità Relativa,%,145,Darfo (shake up),222,BS,Darfo Boario Terme,via De Amicis 6 - c/o asilo nido,5080810,1591399,10.17736553,45.87460256,"(45.87460256, 10.17736553)"
4045,Radiazione Globale,W/mq,145,Darfo (shake up),222,BS,Darfo Boario Terme,via De Amicis 6 - c/o asilo nido,5080810,1591399,10.17736553,45.87460256,"(45.87460256, 10.17736553)"
4048,Velocità Vento,m/s,145,Darfo (shake up),222,BS,Darfo Boario Terme,via De Amicis 6 - c/o asilo nido,5080810,1591399,10.17736553,45.87460256,"(45.87460256, 10.17736553)"
4049,Precipitazione,mm,145,Darfo (shake up),222,BS,Darfo Boario Terme,via De Amicis 6 - c/o asilo nido,5080810,1591399,10.17736553,45.87460256,"(45.87460256, 10.17736553)"
8008,Temperatura,°C,835,Oga S. Colombano,"2,295",SO,Valdisotto,FORTE DI OGA,5146182,1603177,10.34333681,46.46111472,"(46.46111472, 10.34333681)"
4050,Temperatura,°C,146,Passo S.Marco,"1,824",BG,Mezzoldo,SP8 km59+400 - c/o rifugio Passo S.Marco 2000,5098512,1548671,9.62865208,46.03826483,"(46.03826483, 9.62865208)"
4051,Umidità Relativa,%,146,Passo S.Marco,"1,824",BG,Mezzoldo,SP8 km59+400 - c/o rifugio Passo S.Marco 2000,5098512,1548671,9.62865208,46.03826483,"(46.03826483, 9.62865208)"
4053,Radiazione Globale,W/mq,146,Passo S.Marco,"1,824",BG,Mezzoldo,SP8 km59+400 - c/o rifugio Passo S.Marco 2000,5098512,1548671,9.62865208,46.03826483,"(46.03826483, 9.62865208)"
4056,Velocità Vento,m/s,146,Passo S.Marco,"1,824",BG,Mezzoldo,SP8 km59+400 - c/o rifugio Passo S.Marco 2000,5098512,1548671,9.62865208,46.03826483,"(46.03826483, 9.62865208)"
4057,Precipitazione,mm,146,Passo S.Marco,"1,824",BG,Mezzoldo,SP8 km59+400 - c/o rifugio Passo S.Marco 2000,5098512,1548671,9.62865208,46.03826483,"(46.03826483, 9.62865208)"
4058,Temperatura,°C,147,Milano - Parco Nord,142,MI,Cinisello Balsamo,Cinisello Balsamo nel parco nord,5043277,1516078,9.20560494,45.54266736,"(45.54266736, 9.20560494)"
4059,Umidità Relativa,%,147,Milano - Parco Nord,142,MI,Cinisello Balsamo,Cinisello Balsamo nel parco nord,5043277,1516078,9.20560494,45.54266736,"(45.54266736, 9.20560494)"
4060,Radiazione Globale,W/mq,147,Milano - Parco Nord,142,MI,Cinisello Balsamo,Cinisello Balsamo nel parco nord,5043277,1516078,9.20560494,45.54266736,"(45.54266736, 9.20560494)"
4064,Velocità Vento,m/s,147,Milano - Parco Nord,142,MI,Cinisello Balsamo,Cinisello Balsamo nel parco nord,5043277,1516078,9.20560494,45.54266736,"(45.54266736, 9.20560494)"
4065,Precipitazione,mm,147,Milano - Parco Nord,142,MI,Cinisello Balsamo,Cinisello Balsamo nel parco nord,5043277,1516078,9.20560494,45.54266736,"(45.54266736, 9.20560494)"
4066,Temperatura,°C,148,Arconate (shake Up),182,MI,Arconate,via De Gasperi ang. via Dell'Usignolo,5043918,1488109,8.84732669,45.54852147,"(45.54852147, 8.84732669)"
4067,Umidità Relativa,%,148,Arconate (shake Up),182,MI,Arconate,via De Gasperi ang. via Dell'Usignolo,5043918,1488109,8.84732669,45.54852147,"(45.54852147, 8.84732669)"
4069,Radiazione Globale,W/mq,148,Arconate (shake Up),182,MI,Arconate,via De Gasperi ang. via Dell'Usignolo,5043918,1488109,8.84732669,45.54852147,"(45.54852147, 8.84732669)"
4072,Velocità Vento,m/s,148,Arconate (shake Up),182,MI,Arconate,via De Gasperi ang. via Dell'Usignolo,5043918,1488109,8.84732669,45.54852147,"(45.54852147, 8.84732669)"
4082,Temperatura,°C,150,Pieve S. Giacomo,39,CR,Pieve San Giacomo,loc. Silvelletta,4997188,1594028,10.19519169,45.12173258,"(45.12173258, 10.19519169)"
4083,Umidità Relativa,%,150,Pieve S. Giacomo,39,CR,Pieve San Giacomo,loc. Silvelletta,4997188,1594028,10.19519169,45.12173258,"(45.12173258, 10.19519169)"
4085,Radiazione Globale,W/mq,150,Pieve S. Giacomo,39,CR,Pieve San Giacomo,loc. Silvelletta,4997188,1594028,10.19519169,45.12173258,"(45.12173258, 10.19519169)"
4088,Velocità Vento,m/s,150,Pieve S. Giacomo,39,CR,Pieve San Giacomo,loc. Silvelletta,4997188,1594028,10.19519169,45.12173258,"(45.12173258, 10.19519169)"
4089,Precipitazione,mm,150,Pieve S. Giacomo,39,CR,Pieve San Giacomo,loc. Silvelletta,4997188,1594028,10.19519169,45.12173258,"(45.12173258, 10.19519169)"
4112,Precipitazione,mm,148,Arconate (shake Up),182,MI,Arconate,via De Gasperi ang. via Dell'Usignolo,5043918,1488109,8.84732669,45.54852147,"(45.54852147, 8.84732669)"
5121,Temperatura,°C,166,Mantova - Lunetta 2 (meteo),25,MN,Mantova,campo sportivo Stefano Filippi,5002140,1643388,10.82394014,45.15799358,"(45.15799358, 10.82394014)"
5122,Umidità Relativa,%,166,Mantova - Lunetta 2 (meteo),25,MN,Mantova,campo sportivo Stefano Filippi,5002140,1643388,10.82394014,45.15799358,"(45.15799358, 10.82394014)"
5124,Radiazione Globale,W/mq,166,Mantova - Lunetta 2 (meteo),25,MN,Mantova,campo sportivo Stefano Filippi,5002140,1643388,10.82394014,45.15799358,"(45.15799358, 10.82394014)"
5127,Velocità Vento,m/s,166,Mantova - Lunetta 2 (meteo),25,MN,Mantova,campo sportivo Stefano Filippi,5002140,1643388,10.82394014,45.15799358,"(45.15799358, 10.82394014)"
5128,Precipitazione,mm,166,Mantova - Lunetta 2 (meteo),25,MN,Mantova,campo sportivo Stefano Filippi,5002140,1643388,10.82394014,45.15799358,"(45.15799358, 10.82394014)"
8001,Precipitazione,mm,855,Varzi - via Mazzini *,485,PV,Varzi,VIA MAZZINI,4963209,1515685,9.19805158,44.82194386,"(44.82194386, 9.19805158)"
8002,Temperatura,°C,855,Varzi - via Mazzini *,485,PV,Varzi,VIA MAZZINI,4963209,1515685,9.19805158,44.82194386,"(44.82194386, 9.19805158)"
8004,Precipitazione,mm,857,Passo del Giovà,"1,363",PV,Santa Margherita di Staffora,PASSO DEL GIOVA,4947507,1517419,9.21944889,44.68055183,"(44.68055183, 9.21944889)"
8005,Temperatura,°C,857,Passo del Giovà,"1,363",PV,Santa Margherita di Staffora,PASSO DEL GIOVA,4947507,1517419,9.21944889,44.68055183,"(44.68055183, 9.21944889)"
8006,Precipitazione,mm,856,Fortunago *,501,PV,Fortunago,POLINAGO,4973268,1515419,9.19499417,44.91250111,"(44.91250111, 9.19499417)"
8010,Precipitazione,mm,835,Oga S. Colombano,"2,295",SO,Valdisotto,FORTE DI OGA,5146182,1603177,10.34333681,46.46111472,"(46.46111472, 10.34333681)"
8011,Umidità Relativa,%,835,Oga S. Colombano,"2,295",SO,Valdisotto,FORTE DI OGA,5146182,1603177,10.34333681,46.46111472,"(46.46111472, 10.34333681)"
8013,Temperatura,°C,833,Gerola - Pescegallo *,"1,845",SO,Gerola Alta,PESCEGALLO,5097009,1544831,9.57888786,46.02500064,"(46.02500064, 9.57888786)"
8015,Precipitazione,mm,833,Gerola - Pescegallo *,"1,845",SO,Gerola Alta,PESCEGALLO,5097009,1544831,9.57888786,46.02500064,"(46.02500064, 9.57888786)"
8016,Temperatura,°C,836,Aprica *,"1,950",SO,Aprica,MAGNOLTA,5111234,1589565,10.15944817,46.14860764,"(46.14860764, 10.15944817)"
8018,Precipitazione,mm,836,Aprica *,"1,950",SO,Aprica,MAGNOLTA,5111234,1589565,10.15944817,46.14860764,"(46.14860764, 10.15944817)"
8019,Temperatura,°C,846,Pantano d`Avio *,"2,105",BS,Edolo,RIFUGIO GARIBALDI,5114565,1613558,10.47083922,46.17499883,"(46.17499883, 10.47083922)"
8021,Precipitazione,mm,846,Pantano d`Avio *,"2,105",BS,Edolo,RIFUGIO GARIBALDI,5114565,1613558,10.47083922,46.17499883,"(46.17499883, 10.47083922)"
8023,Temperatura,°C,847,Carisole,"1,950",BG,Carona,RIFUGIO MIRTILLO,5098976,1561712,9.79722861,46.04138761,"(46.04138761, 9.79722861)"
8025,Precipitazione,mm,847,Carisole,"1,950",BG,Carona,RIFUGIO MIRTILLO,5098976,1561712,9.79722861,46.04138761,"(46.04138761, 9.79722861)"
8027,Temperatura,°C,848,La Vallaccia *,"2,655",SO,Livigno,LIVIGNO,5147863,1592569,10.20555831,46.47778008,"(46.47778008, 10.20555831)"
8029,Precipitazione,mm,848,La Vallaccia *,"2,655",SO,Livigno,LIVIGNO,5147863,1592569,10.20555831,46.47778008,"(46.47778008, 10.20555831)"
8030,Umidità Relativa,%,848,La Vallaccia *,"2,655",SO,Livigno,LIVIGNO,5147863,1592569,10.20555831,46.47778008,"(46.47778008, 10.20555831)"
8092,Temperatura,°C,832,Palù,"2,155",SO,Lanzada,SAN GIUSEPPE,5126947,1567978,9.88221942,46.29249997,"(46.29249997, 9.88221942)"
8094,Precipitazione,mm,832,Palù,"2,155",SO,Lanzada,SAN GIUSEPPE,5126947,1567978,9.88221942,46.29249997,"(46.29249997, 9.88221942)"
8095,Precipitazione,mm,912,Foppolo *,"1,682",BG,Foppolo,CAMPO SPORTIVO COMUNALE,5099068,1558529,9.75610761,46.04249594,"(46.04249594, 9.75610761)"
8096,Temperatura,°C,912,Foppolo *,"1,682",BG,Foppolo,CAMPO SPORTIVO COMUNALE,5099068,1558529,9.75610761,46.04249594,"(46.04249594, 9.75610761)"
8097,Precipitazione,mm,822,Valtorta *,982,BG,Valtorta,VALTORTA,5091277,1541774,9.53889086,45.97360719,"(45.97360719, 9.53889086)"
8098,Precipitazione,mm,823,Piazza Brembana (IP radio) *,510,BG,Piazza Brembana,PIAZZA BREMBANA,5088301,1552172,9.67277767,45.94611233,"(45.94611233, 9.67277767)"
8103,Precipitazione,mm,851,Cavacca *,"1,147",BS,Treviso Bresciano,CIMA FANE,5064515,1616687,10.49916675,45.72416486,"(45.72416486, 10.49916675)"
8104,Temperatura,°C,851,Cavacca *,"1,147",BS,Treviso Bresciano,CIMA FANE,5064515,1616687,10.49916675,45.72416486,"(45.72416486, 10.49916675)"
8111,Precipitazione,mm,818,Fuentes - S.Agata *,199,CO,Gera Lario,S.AGATA,5110854,1531863,9.41227503,46.15033242,"(46.15033242, 9.41227503)"
8122,Precipitazione,mm,867,Caslino d` Erba *,427,CO,Caslino d'Erba,PONTE SUL LAMBRO,5075805,1518073,9.23237261,45.83539031,"(45.83539031, 9.23237261)"
8123,Temperatura,°C,867,Caslino d` Erba *,427,CO,Caslino d'Erba,PONTE SUL LAMBRO,5075805,1518073,9.23237261,45.83539031,"(45.83539031, 9.23237261)"
8133,Temperatura,°C,819,Laveno di Lozio *,994,BS,Lozio,LAVENO DI LOZIO,5092682,1597712,10.26111058,45.98055972,"(45.98055972, 10.26111058)"
8134,Temperatura,°C,820,Fraine - Pisogne,842,BS,Pisogne,FRAINE,5074037,1589610,10.15305736,45.81389058,"(45.81389058, 10.15305736)"
8135,Precipitazione,mm,874,Sarnico *,197,BG,Sarnico,SARNICO,5057398,1574566,9.95688928,45.66594194,"(45.66594194, 9.95688928)"
8136,Temperatura,°C,874,Sarnico *,197,BG,Sarnico,SARNICO,5057398,1574566,9.95688928,45.66594194,"(45.66594194, 9.95688928)"
8139,Precipitazione,mm,876,Caino *,428,BS,Caino,CAINO,5051557,1603128,10.32222392,45.60972056,"(45.60972056, 10.32222392)"
8140,Temperatura,°C,876,Caino *,428,BS,Caino,CAINO,5051557,1603128,10.32222392,45.60972056,"(45.60972056, 10.32222392)"
8145,Temperatura,°C,889,Bergamo - Torre Boldone,311,BG,Torre Boldone,TORRE BOLDONE,5062759,1553858,9.69167053,45.71610889,"(45.71610889, 9.69167053)"
8146,Temperatura,°C,824,Clusone *,591,BG,Clusone,CLUSONE,5081881,1573479,9.94666236,45.88638933,"(45.88638933, 9.94666236)"
8150,Precipitazione,mm,884,Cuveglio *,294,VA,Cuveglio,CUVEGLIO,5083359,1480074,8.74277458,45.90332947,"(45.90332947, 8.74277458)"
8151,Temperatura,°C,884,Cuveglio *,294,VA,Cuveglio,CUVEGLIO,5083359,1480074,8.74277458,45.90332947,"(45.90332947, 8.74277458)"
8152,Precipitazione,mm,885,Arcisate *,383,VA,Arcisate,CONTRADA LOGACCIO,5076975,1491528,8.89055144,45.84610806,"(45.84610806, 8.89055144)"
8155,Precipitazione,mm,817,Pavia - Ponte Ticino SS35 *,71,PV,Pavia,PAVIA,5002953,1511536,9.146482,45.17979158,"(45.17979158, 9.146482)"
8157,Temperatura,°C,817,Pavia - Ponte Ticino SS35 *,71,PV,Pavia,PAVIA,5002953,1511536,9.146482,45.17979158,"(45.17979158, 9.146482)"
8160,Precipitazione,mm,824,Clusone *,591,BG,Clusone,CLUSONE,5081881,1573479,9.94666236,45.88638933,"(45.88638933, 9.94666236)"
8161,Precipitazione,mm,889,Bergamo - Torre Boldone,311,BG,Torre Boldone,TORRE BOLDONE,5062759,1553858,9.69167053,45.71610889,"(45.71610889, 9.69167053)"
8162,Temperatura,°C,869,Milano - via Feltre *,127,MI,Milano,VIA FELTRE,5037617,1519463,9.24873853,45.49163461,"(45.49163461, 9.24873853)"
8163,Precipitazione,mm,859,Luino *,205,VA,Luino,MOLO DI LUINO,5094560,1480106,8.74272325,46.00414283,"(46.00414283, 8.74272325)"
8164,Temperatura,°C,859,Luino *,205,VA,Luino,MOLO DI LUINO,5094560,1480106,8.74272325,46.00414283,"(46.00414283, 8.74272325)"
8165,Precipitazione,mm,870,Como - Villa Geno *,200,CO,Como,VIALE GENO 10,5074100,1506234,9.07990936,45.82025397,"(45.82025397, 9.07990936)"
8166,Temperatura,°C,870,Como - Villa Geno *,200,CO,Como,VIALE GENO 10,5074100,1506234,9.07990936,45.82025397,"(45.82025397, 9.07990936)"
8167,Precipitazione,mm,860,Angera *,202,VA,Angera,PIAZZA GARIBALDI,5068691,1466898,8.57392189,45.77080719,"(45.77080719, 8.57392189)"
8168,Temperatura,°C,885,Arcisate *,383,VA,Arcisate,CONTRADA LOGACCIO,5076975,1491528,8.89055144,45.84610806,"(45.84610806, 8.89055144)"
8169,Precipitazione,mm,820,Fraine - Pisogne,842,BS,Pisogne,FRAINE,5074037,1589610,10.15305736,45.81389058,"(45.81389058, 10.15305736)"
8170,Precipitazione,mm,819,Laveno di Lozio *,994,BS,Lozio,LAVENO DI LOZIO,5092682,1597712,10.26111058,45.98055972,"(45.98055972, 10.26111058)"
8171,Precipitazione,mm,821,Dezzo di Scalve - Azzone *,599,BG,Azzone,DEZZO DI SCALVE,5091884,1585564,10.10417175,45.97500417,"(45.97500417, 10.10417175)"
8172,Precipitazione,mm,877,Bovegno *,572,BS,Bovegno,BOVEGNO,5070555,1598223,10.26318272,45.78138436,"(45.78138436, 10.26318272)"
8173,Precipitazione,mm,905,Cevo *,"1,128",BS,Cevo,ASILO COMUNALE,5103942,1606557,10.37778231,46.08055608,"(46.08055608, 10.37778231)"
8174,Precipitazione,mm,909,Bienno *,501,BS,Bienno,BIENNO,5088825,1599776,10.2869455,45.94555714,"(45.94555714, 10.2869455)"
8176,Precipitazione,mm,894,Lomello *,95,PV,Lomello,LOMELLO,4996725,1484249,8.79937869,45.12364792,"(45.12364792, 8.79937869)"
8178,Temperatura,°C,894,Lomello *,95,PV,Lomello,LOMELLO,4996725,1484249,8.79937869,45.12364792,"(45.12364792, 8.79937869)"
8179,Precipitazione,mm,895,Soncino *,87,CR,Soncino,SONCINO,5027700,1569706,9.89027567,45.3991695,"(45.3991695, 9.89027567)"
8180,Temperatura,°C,895,Soncino *,87,CR,Soncino,SONCINO,5027700,1569706,9.89027567,45.3991695,"(45.3991695, 9.89027567)"
8184,Temperatura,°C,909,Bienno *,501,BS,Bienno,BIENNO,5088825,1599776,10.2869455,45.94555714,"(45.94555714, 10.2869455)"
8185,Precipitazione,mm,878,Darfo (IP radio) *,205,BS,Darfo Boario Terme,Ponte Oglio SS42,5080356,1589788,10.15652706,45.87072956,"(45.87072956, 10.15652706)"
8186,Temperatura,°C,878,Darfo (IP radio) *,205,BS,Darfo Boario Terme,Ponte Oglio SS42,5080356,1589788,10.15652706,45.87072956,"(45.87072956, 10.15652706)"
8187,Temperatura,°C,905,Cevo *,"1,128",BS,Cevo,ASILO COMUNALE,5103942,1606557,10.37778231,46.08055608,"(46.08055608, 10.37778231)"
8188,Precipitazione,mm,901,Crema - via Camporelle *,103,CR,Crema,CIMITERO COMUNALE,5022800,1552618,9.67144061,45.35656022,"(45.35656022, 9.67144061)"
8189,Temperatura,°C,901,Crema - via Camporelle *,103,CR,Crema,CIMITERO COMUNALE,5022800,1552618,9.67144061,45.35656022,"(45.35656022, 9.67144061)"
8190,Precipitazione,mm,908,Voghera - Ponte Staffora *,95,PV,Voghera,via Negrotto Cambiaso,4981890,1501407,9.01750575,44.9902815,"(44.9902815, 9.01750575)"
8191,Temperatura,°C,908,Voghera - Ponte Staffora *,95,PV,Voghera,via Negrotto Cambiaso,4981890,1501407,9.01750575,44.9902815,"(44.9902815, 9.01750575)"
8193,Precipitazione,mm,862,Lodi - Ponte Adda SP235 *,64,LO,Lodi,LODI,5018543,1539897,9.50869728,45.31908319,"(45.31908319, 9.50869728)"
8195,Precipitazione,mm,886,Vigevano - Ponte Ticino SS494 *,94,PV,Vigevano,VIGEVANO,5020906,1490600,8.87967586,45.34142636,"(45.34142636, 8.87967586)"
8196,Temperatura,°C,886,Vigevano - Ponte Ticino SS494 *,94,PV,Vigevano,VIGEVANO,5020906,1490600,8.87967586,45.34142636,"(45.34142636, 8.87967586)"
8197,Precipitazione,mm,911,Lambrugo *,273,CO,Lambrugo,ISOLA ECOLOGICA,5067648,1519036,9.24444953,45.76194769,"(45.76194769, 9.24444953)"
8198,Temperatura,°C,911,Lambrugo *,273,CO,Lambrugo,ISOLA ECOLOGICA,5067648,1519036,9.24444953,45.76194769,"(45.76194769, 9.24444953)"
8199,Precipitazione,mm,865,Cantù - Asnago *,244,CO,Cantù,CANTU,5062800,1507838,9.10037269,45.71853181,"(45.71853181, 9.10037269)"
8200,Temperatura,°C,865,Cantù - Asnago *,244,CO,Cantù,CANTU,5062800,1507838,9.10037269,45.71853181,"(45.71853181, 9.10037269)"
8201,Precipitazione,mm,858,Casanova *,575,PV,Santa Margherita di Staffora,CASANOVA,4957229,1518944,9.23905083,44.76803261,"(44.76803261, 9.23905083)"
8202,Temperatura,°C,858,Casanova *,575,PV,Santa Margherita di Staffora,CASANOVA,4957229,1518944,9.23905083,44.76803261,"(44.76803261, 9.23905083)"
8206,Precipitazione,mm,906,Asola - Sorbara d`Asola *,41,MN,Asola,SORBARA,5008046,1611196,10.41583719,45.21694686,"(45.21694686, 10.41583719)"
8207,Temperatura,°C,906,Asola - Sorbara d`Asola *,41,MN,Asola,SORBARA,5008046,1611196,10.41583719,45.21694686,"(45.21694686, 10.41583719)"
8208,Precipitazione,mm,910,Manerbio *,60,BS,Manerbio,MANERBIO,5023574,1589748,10.14555158,45.35975344,"(45.35975344, 10.14555158)"
8209,Temperatura,°C,910,Manerbio *,60,BS,Manerbio,MANERBIO,5023574,1589748,10.14555158,45.35975344,"(45.35975344, 10.14555158)"
8211,Precipitazione,mm,903,Misinto,247,MB,Misinto,MISINTO,5056448,1505199,9.06639475,45.66138472,"(45.66138472, 9.06639475)"
8212,Temperatura,°C,903,Misinto,247,MB,Misinto,MISINTO,5056448,1505199,9.06639475,45.66138472,"(45.66138472, 9.06639475)"
8213,Precipitazione,mm,902,Barni *,625,CO,Barni,POZZO COMUNALE,5083578,1520667,9.26610817,45.90527661,"(45.90527661, 9.26610817)"
8214,Temperatura,°C,902,Barni *,625,CO,Barni,POZZO COMUNALE,5083578,1520667,9.26610817,45.90527661,"(45.90527661, 9.26610817)"
8215,Precipitazione,mm,899,Castiglione delle Stiviere *,109,MN,Castiglione delle Stiviere,MAGAZZINO COMUNALE,5025649,1618414,10.51193925,45.37416708,"(45.37416708, 10.51193925)"
8216,Temperatura,°C,899,Castiglione delle Stiviere *,109,MN,Castiglione delle Stiviere,MAGAZZINO COMUNALE,5025649,1618414,10.51193925,45.37416708,"(45.37416708, 10.51193925)"
8219,Precipitazione,mm,897,Busto Arsizio - via Rossini *,242,VA,Busto Arsizio,Ist. Comprensivo Sandro Pertini,5052573,1486298,8.82388414,45.62639047,"(45.62639047, 8.82388414)"
8220,Temperatura,°C,897,Busto Arsizio - via Rossini *,242,VA,Busto Arsizio,Ist. Comprensivo Sandro Pertini,5052573,1486298,8.82388414,45.62639047,"(45.62639047, 8.82388414)"
8221,Precipitazione,mm,898,Codogno *,68,LO,Codogno,CODOGNO,5001213,1556680,9.72083264,45.16194522,"(45.16194522, 9.72083264)"
8222,Precipitazione,mm,816,Sermide *,10,MN,Sermide,SERMIDE,4987228,1680464,11.28993625,45.01536422,"(45.01536422, 11.28993625)"
8223,Temperatura,°C,816,Sermide *,10,MN,Sermide,SERMIDE,4987228,1680464,11.28993625,45.01536422,"(45.01536422, 11.28993625)"
8224,Precipitazione,mm,873,Monzambano *,62,MN,Ponti sul Mincio,MONTINA,5028006,1633589,10.706296,45.39264211,"(45.39264211, 10.706296)"
8225,Temperatura,°C,873,Monzambano *,62,MN,Ponti sul Mincio,MONTINA,5028006,1633589,10.706296,45.39264211,"(45.39264211, 10.706296)"
8226,Precipitazione,mm,904,Paisco Loveno *,816,BS,Paisco Loveno,PAISCO LOVENO,5103621,1600310,10.29694303,46.07861336,"(46.07861336, 10.29694303)"
8227,Temperatura,°C,904,Paisco Loveno *,816,BS,Paisco Loveno,PAISCO LOVENO,5103621,1600310,10.29694303,46.07861336,"(46.07861336, 10.29694303)"
8228,Precipitazione,mm,907,Varese - via Appiani *,416,VA,Varese,VIA APPIANI ANDREA 15,5075472,1486327,8.82361133,45.83249661,"(45.83249661, 8.82361133)"
8229,Temperatura,°C,907,Varese - via Appiani *,416,VA,Varese,VIA APPIANI ANDREA 15,5075472,1486327,8.82361133,45.83249661,"(45.83249661, 8.82361133)"
8230,Precipitazione,mm,900,Chiari *,140,BS,Chiari,CANALE TRAVAGLIATA,5041413,1573264,9.93777786,45.52222175,"(45.52222175, 9.93777786)"
8583,Precipitazione,mm,999,Poggio S.Elsa (Comune Laveno),951,VA,Laveno Mombello,POGGIO S.ELSA,5084036,1472514,8.64527508,45.90916289,"(45.90916289, 8.64527508)"
8584,Temperatura,°C,999,Poggio S.Elsa (Comune Laveno),951,VA,Laveno Mombello,POGGIO S.ELSA,5084036,1472514,8.64527508,45.90916289,"(45.90916289, 8.64527508)"
8585,Umidità Relativa,%,999,Poggio S.Elsa (Comune Laveno),951,VA,Laveno Mombello,POGGIO S.ELSA,5084036,1472514,8.64527508,45.90916289,"(45.90916289, 8.64527508)"
8587,Precipitazione,mm,998,Laveno Molo (Comune Laveno),207,VA,Laveno Mombello,PIAZZA CADUTI DEL LAVORO,5084129,1470452,8.61868417,45.90991464,"(45.90991464, 8.61868417)"
8588,Temperatura,°C,998,Laveno Molo (Comune Laveno),207,VA,Laveno Mombello,PIAZZA CADUTI DEL LAVORO,5084129,1470452,8.61868417,45.90991464,"(45.90991464, 8.61868417)"
9001,Temperatura,°C,1210,Ranzanico *,512,BG,Ranzanico,via dei Caprini - loc. Bocciofilo,5070833,1572529,9.93275272,45.78706456,"(45.78706456, 9.93275272)"
9002,Temperatura,°C,1211,Castronno,379,VA,Castronno,via Belvedere,5066166,1486085,8.82076322,45.74873297,"(45.74873297, 8.82076322)"
9003,Temperatura,°C,1212,Castione della Presolana *,"1,180",BG,Castione della Presolana,loc. Ponciai,5086669,1582469,10.06332908,45.92845581,"(45.92845581, 10.06332908)"
9008,Temperatura,°C,1216,Valbondione *,"1,802",BG,Valbondione,Diga del Barbellino ENEL,5101767,1580355,10.03860694,46.06456797,"(46.06456797, 10.03860694)"
9010,Temperatura,°C,1235,Ponte Cene - Cene *,361,BG,Cene,cabina gas metano comunale,5070421,1563888,9.82188244,45.78454989,"(45.78454989, 9.82188244)"
9011,Temperatura,°C,1230,Lago Truzzo - S.Giacomo Filippo *,"2,064",SO,San Giacomo Filippo,Diga Lago Truzzo ENEL,5134178,1524642,9.31999053,46.36054214,"(46.36054214, 9.31999053)"
9012,Temperatura,°C,1238,S.Martino Valmasino *,943,SO,Val Masino,centro sportivo comunale,5121090,1548764,9.63217806,46.24144667,"(46.24144667, 9.63217806)"
9013,Temperatura,°C,1220,Case Pirli - Ponte di Legno *,"1,640",BS,Ponte di Legno,PONTE DI LEGNO,5128162,1616058,10.50656194,46.29690536,"(46.29690536, 10.50656194)"
9014,Temperatura,°C,1237,S.Giacomo - Monno *,"1,728",BS,Monno,MONNO,5122713,1600913,10.308807,46.25030272,"(46.25030272, 10.308807)"
9015,Temperatura,°C,1229,Grabiasca *,738,BG,Gandellino,GANDELLINO ponte sull'Adda,5095358,1573413,9.94787769,46.00767519,"(46.00767519, 9.94787769)"
9016,Temperatura,°C,1224,Cortenova *,456,LC,Cortenova,campo sportivo,5094968,1529478,9.38040375,46.00746603,"(46.00746603, 9.38040375)"
9017,Temperatura,°C,1205,Molteno,278,LC,Molteno,MOLTENO,5070006,1523899,9.30710044,45.78301922,"(45.78301922, 9.30710044)"
9019,Temperatura,°C,1201,Canevino *,455,PV,Canevino,area comunale vicino campi da tennis,4975763,1521779,9.275674,44.93479528,"(44.93479528, 9.275674)"
9020,Temperatura,°C,1222,Cavargna *,"1,100",CO,Cavargna,CAVARGNA chiesa parrocchiale,5104246,1508595,9.11084686,46.09155206,"(46.09155206, 9.11084686)"
9021,Temperatura,°C,1234,Osnago *,234,LC,Osnago,area comunale depuratore,5058333,1530288,9.38855728,45.6777065,"(45.6777065, 9.38855728)"
9024,Temperatura,°C,1221,Casnigo (IP gsm),501,BG,Casnigo,area comunale vicino campo sportivo,5075998,1568075,9.87618792,45.83400011,"(45.83400011, 9.87618792)"
9025,Temperatura,°C,1228,Goito *,30,MN,Goito,c/o acquedotto comunale,5013602,1630543,10.66359803,45.26361744,"(45.26361744, 10.66359803)"
9026,Temperatura,°C,1233,Lurago Marinone *,296,CO,Lurago Marinone,area comunale ex depuratore zona industriale,5061887,1497877,8.97238367,45.71035675,"(45.71035675, 8.97238367)"
9027,Temperatura,°C,1206,Cavaria,274,VA,Cavaria con Premezzo,via Cantalupa c/o Prot.civile e circolo anziani,5059587,1485053,8.80769797,45.68949617,"(45.68949617, 8.80769797)"
9028,Temperatura,°C,1202,Vercana,980,CO,Vercana,area demaniale -  loc. Monti di Vercana,5114325,1525085,9.32468906,46.18185467,"(46.18185467, 9.32468906)"
9030,Temperatura,°C,1218,Valcanale *,"1,002",BG,Ardesio,ARDESIO scuola comunale,5088938,1566944,9.863434,45.95056364,"(45.95056364, 9.863434)"
9031,Temperatura,°C,1219,Casalbuttano *,56,CR,Casalbuttano ed Uniti,CASALBUTTANO ED UNITI,5011856,1575627,9.96349494,45.25595928,"(45.25595928, 9.96349494)"
9034,Temperatura,°C,1209,Rota d` Imagna,674,BG,Rota d'Imagna,cimitero - loc. Caboli,5076401,1539736,9.51135208,45.83984475,"(45.83984475, 9.51135208)"
9073,Velocità Vento,m/s,1211,Castronno,379,VA,Castronno,via Belvedere,5066166,1486085,8.82076322,45.74873297,"(45.74873297, 8.82076322)"
9074,Velocità Vento,m/s,1202,Vercana,980,CO,Vercana,area demaniale -  loc. Monti di Vercana,5114325,1525085,9.32468906,46.18185467,"(46.18185467, 9.32468906)"
9090,Precipitazione,mm,1210,Ranzanico *,512,BG,Ranzanico,via dei Caprini - loc. Bocciofilo,5070833,1572529,9.93275272,45.78706456,"(45.78706456, 9.93275272)"
9091,Precipitazione,mm,1211,Castronno,379,VA,Castronno,via Belvedere,5066166,1486085,8.82076322,45.74873297,"(45.74873297, 8.82076322)"
9092,Precipitazione,mm,1212,Castione della Presolana *,"1,180",BG,Castione della Presolana,loc. Ponciai,5086669,1582469,10.06332908,45.92845581,"(45.92845581, 10.06332908)"
9097,Precipitazione,mm,1216,Valbondione *,"1,802",BG,Valbondione,Diga del Barbellino ENEL,5101767,1580355,10.03860694,46.06456797,"(46.06456797, 10.03860694)"
9099,Precipitazione,mm,1235,Ponte Cene - Cene *,361,BG,Cene,cabina gas metano comunale,5070421,1563888,9.82188244,45.78454989,"(45.78454989, 9.82188244)"
9100,Precipitazione,mm,1230,Lago Truzzo - S.Giacomo Filippo *,"2,064",SO,San Giacomo Filippo,Diga Lago Truzzo ENEL,5134178,1524642,9.31999053,46.36054214,"(46.36054214, 9.31999053)"
9101,Precipitazione,mm,1238,S.Martino Valmasino *,943,SO,Val Masino,centro sportivo comunale,5121090,1548764,9.63217806,46.24144667,"(46.24144667, 9.63217806)"
9102,Precipitazione,mm,1220,Case Pirli - Ponte di Legno *,"1,640",BS,Ponte di Legno,PONTE DI LEGNO,5128162,1616058,10.50656194,46.29690536,"(46.29690536, 10.50656194)"
9103,Precipitazione,mm,1237,S.Giacomo - Monno *,"1,728",BS,Monno,MONNO,5122713,1600913,10.308807,46.25030272,"(46.25030272, 10.308807)"
9104,Precipitazione,mm,1229,Grabiasca *,738,BG,Gandellino,GANDELLINO ponte sull'Adda,5095358,1573413,9.94787769,46.00767519,"(46.00767519, 9.94787769)"
9105,Precipitazione,mm,1224,Cortenova *,456,LC,Cortenova,campo sportivo,5094968,1529478,9.38040375,46.00746603,"(46.00746603, 9.38040375)"
9106,Precipitazione,mm,1205,Molteno,278,LC,Molteno,MOLTENO,5070006,1523899,9.30710044,45.78301922,"(45.78301922, 9.30710044)"
9108,Precipitazione,mm,1201,Canevino *,455,PV,Canevino,area comunale vicino campi da tennis,4975763,1521779,9.275674,44.93479528,"(44.93479528, 9.275674)"
9109,Precipitazione,mm,1222,Cavargna *,"1,100",CO,Cavargna,CAVARGNA chiesa parrocchiale,5104246,1508595,9.11084686,46.09155206,"(46.09155206, 9.11084686)"
9110,Precipitazione,mm,1234,Osnago *,234,LC,Osnago,area comunale depuratore,5058333,1530288,9.38855728,45.6777065,"(45.6777065, 9.38855728)"
9113,Precipitazione,mm,1221,Casnigo (IP gsm),501,BG,Casnigo,area comunale vicino campo sportivo,5075998,1568075,9.87618792,45.83400011,"(45.83400011, 9.87618792)"
9114,Precipitazione,mm,1228,Goito *,30,MN,Goito,c/o acquedotto comunale,5013602,1630543,10.66359803,45.26361744,"(45.26361744, 10.66359803)"
9115,Precipitazione,mm,1233,Lurago Marinone *,296,CO,Lurago Marinone,area comunale ex depuratore zona industriale,5061887,1497877,8.97238367,45.71035675,"(45.71035675, 8.97238367)"
9116,Precipitazione,mm,1206,Cavaria,274,VA,Cavaria con Premezzo,via Cantalupa c/o Prot.civile e circolo anziani,5059587,1485053,8.80769797,45.68949617,"(45.68949617, 8.80769797)"
9117,Precipitazione,mm,1202,Vercana,980,CO,Vercana,area demaniale -  loc. Monti di Vercana,5114325,1525085,9.32468906,46.18185467,"(46.18185467, 9.32468906)"
9119,Precipitazione,mm,1218,Valcanale *,"1,002",BG,Ardesio,ARDESIO scuola comunale,5088938,1566944,9.863434,45.95056364,"(45.95056364, 9.863434)"
9120,Precipitazione,mm,1219,Casalbuttano *,56,CR,Casalbuttano ed Uniti,CASALBUTTANO ED UNITI,5011856,1575627,9.96349494,45.25595928,"(45.25595928, 9.96349494)"
9123,Precipitazione,mm,1209,Rota d` Imagna,674,BG,Rota d'Imagna,cimitero - loc. Caboli,5076401,1539736,9.51135208,45.83984475,"(45.83984475, 9.51135208)"
9381,Umidità Relativa,%,1238,S.Martino Valmasino *,943,SO,Val Masino,centro sportivo comunale,5121090,1548764,9.63217806,46.24144667,"(46.24144667, 9.63217806)"
9384,Umidità Relativa,%,1210,Ranzanico *,512,BG,Ranzanico,via dei Caprini - loc. Bocciofilo,5070833,1572529,9.93275272,45.78706456,"(45.78706456, 9.93275272)"
9386,Umidità Relativa,%,1221,Casnigo (IP gsm),501,BG,Casnigo,area comunale vicino campo sportivo,5075998,1568075,9.87618792,45.83400011,"(45.83400011, 9.87618792)"
9387,Umidità Relativa,%,1212,Castione della Presolana *,"1,180",BG,Castione della Presolana,loc. Ponciai,5086669,1582469,10.06332908,45.92845581,"(45.92845581, 10.06332908)"
9388,Umidità Relativa,%,1202,Vercana,980,CO,Vercana,area demaniale -  loc. Monti di Vercana,5114325,1525085,9.32468906,46.18185467,"(46.18185467, 9.32468906)"
9390,Umidità Relativa,%,1216,Valbondione *,"1,802",BG,Valbondione,Diga del Barbellino ENEL,5101767,1580355,10.03860694,46.06456797,"(46.06456797, 10.03860694)"
9391,Umidità Relativa,%,1218,Valcanale *,"1,002",BG,Ardesio,ARDESIO scuola comunale,5088938,1566944,9.863434,45.95056364,"(45.95056364, 9.863434)"
9395,Umidità Relativa,%,1209,Rota d` Imagna,674,BG,Rota d'Imagna,cimitero - loc. Caboli,5076401,1539736,9.51135208,45.83984475,"(45.83984475, 9.51135208)"
9396,Umidità Relativa,%,1201,Canevino *,455,PV,Canevino,area comunale vicino campi da tennis,4975763,1521779,9.275674,44.93479528,"(44.93479528, 9.275674)"
9397,Umidità Relativa,%,1237,S.Giacomo - Monno *,"1,728",BS,Monno,MONNO,5122713,1600913,10.308807,46.25030272,"(46.25030272, 10.308807)"
9398,Umidità Relativa,%,1220,Case Pirli - Ponte di Legno *,"1,640",BS,Ponte di Legno,PONTE DI LEGNO,5128162,1616058,10.50656194,46.29690536,"(46.29690536, 10.50656194)"
9399,Umidità Relativa,%,1222,Cavargna *,"1,100",CO,Cavargna,CAVARGNA chiesa parrocchiale,5104246,1508595,9.11084686,46.09155206,"(46.09155206, 9.11084686)"
9785,Radiazione Globale,W/mq,846,Pantano d`Avio *,"2,105",BS,Edolo,RIFUGIO GARIBALDI,5114565,1613558,10.47083922,46.17499883,"(46.17499883, 10.47083922)"
9786,Radiazione Globale,W/mq,847,Carisole,"1,950",BG,Carona,RIFUGIO MIRTILLO,5098976,1561712,9.79722861,46.04138761,"(46.04138761, 9.79722861)"
9827,Radiazione Globale,W/mq,835,Oga S. Colombano,"2,295",SO,Valdisotto,FORTE DI OGA,5146182,1603177,10.34333681,46.46111472,"(46.46111472, 10.34333681)"
9828,Radiazione Globale,W/mq,848,La Vallaccia *,"2,655",SO,Livigno,LIVIGNO,5147863,1592569,10.20555831,46.47778008,"(46.47778008, 10.20555831)"
10570,Temperatura,°C,1273,Bagni di Masino,"1,191",SO,Val Masino,via Bagni,5121292,1546007,9.59643936,46.24345747,"(46.24345747, 9.59643936)"
10571,Umidità Relativa,%,1273,Bagni di Masino,"1,191",SO,Val Masino,via Bagni,5121292,1546007,9.59643936,46.24345747,"(46.24345747, 9.59643936)"
10574,Precipitazione,mm,1273,Bagni di Masino,"1,191",SO,Val Masino,via Bagni,5121292,1546007,9.59643936,46.24345747,"(46.24345747, 9.59643936)"
10575,Radiazione Globale,W/mq,1273,Bagni di Masino,"1,191",SO,Val Masino,via Bagni,5121292,1546007,9.59643936,46.24345747,"(46.24345747, 9.59643936)"
11007,Temperatura,°C,822,Valtorta *,982,BG,Valtorta,VALTORTA,5091277,1541774,9.53889086,45.97360719,"(45.97360719, 9.53889086)"
11008,Umidità Relativa,%,822,Valtorta *,982,BG,Valtorta,VALTORTA,5091277,1541774,9.53889086,45.97360719,"(45.97360719, 9.53889086)"
11011,Umidità Relativa,%,912,Foppolo *,"1,682",BG,Foppolo,CAMPO SPORTIVO COMUNALE,5099068,1558529,9.75610761,46.04249594,"(46.04249594, 9.75610761)"
11020,Umidità Relativa,%,1205,Molteno,278,LC,Molteno,MOLTENO,5070006,1523899,9.30710044,45.78301922,"(45.78301922, 9.30710044)"
11021,Umidità Relativa,%,1224,Cortenova *,456,LC,Cortenova,campo sportivo,5094968,1529478,9.38040375,46.00746603,"(46.00746603, 9.38040375)"
11129,Velocità Vento Scalare,m/s,123,Cavenago d`Adda,67,LO,Cavenago d'Adda,Caviaga - cascina Casoni,5013099,1544093,9.56174517,45.26983092,"(45.26983092, 9.56174517)"
11130,Direzione Vento,°,123,Cavenago d` Adda,67,LO,Cavenago d'Adda,Caviaga - cascina Casoni,5013099,1544093,9.56174517,45.26983092,"(45.26983092, 9.56174517)"
11140,Radiazione Globale,W/mq,824,Clusone *,591,BG,Clusone,CLUSONE,5081881,1573479,9.94666236,45.88638933,"(45.88638933, 9.94666236)"
11158,Umidità Relativa,%,1230,Lago Truzzo - S.Giacomo Filippo *,"2,064",SO,San Giacomo Filippo,Diga Lago Truzzo ENEL,5134178,1524642,9.31999053,46.36054214,"(46.36054214, 9.31999053)"
11159,Direzione Vento,°,1230,Lago Truzzo - S.Giacomo Filippo *,"2,064",SO,San Giacomo Filippo,Diga Lago Truzzo ENEL,5134178,1524642,9.31999053,46.36054214,"(46.36054214, 9.31999053)"
11160,Velocità Vento,m/s,1230,Lago Truzzo - S.Giacomo Filippo *,"2,064",SO,San Giacomo Filippo,Diga Lago Truzzo ENEL,5134178,1524642,9.31999053,46.36054214,"(46.36054214, 9.31999053)"
11190,Umidità Relativa,%,846,Pantano d`Avio *,"2,105",BS,Edolo,RIFUGIO GARIBALDI,5114565,1613558,10.47083922,46.17499883,"(46.17499883, 10.47083922)"
11215,Temperatura,°C,846,Pantano d`Avio *,"2,105",BS,Edolo,RIFUGIO GARIBALDI,5114565,1613558,10.47083922,46.17499883,"(46.17499883, 10.47083922)"
11225,Velocità Vento,m/s,1222,Cavargna *,"1,100",CO,Cavargna,CAVARGNA chiesa parrocchiale,5104246,1508595,9.11084686,46.09155206,"(46.09155206, 9.11084686)"
11226,Direzione Vento,°,1222,Cavargna *,"1,100",CO,Cavargna,CAVARGNA chiesa parrocchiale,5104246,1508595,9.11084686,46.09155206,"(46.09155206, 9.11084686)"
11228,Radiazione Globale,W/mq,1075,Edolo - via Morino 34,659,BS,Edolo,c/o centrale Enel,5114109,1603378,10.3388605,46.1725273,"(46.1725273, 10.3388605)"
11641,Velocità Vento,m/s,102,S.Colombano al Lambro (ersaf) *,80,MI,San Colombano al Lambro,via Serafina - c/o Vigneto Sperimentale Moretto,5003859,1538227,9.48625681,45.18700408,"(45.18700408, 9.48625681)"
11642,Velocità Vento Scalare,m/s,106,Varzi (ersaf),500,PV,Varzi,Nivione,4963427,1515446,9.19503519,44.82391153,"(44.82391153, 9.19503519)"
11643,Velocità Vento Scalare,m/s,107,Sondrio (ersaf),307,SO,Sondrio,via Valeriana 32 - c/o Ist. Fondazione Fojanini,5112818,1565532,9.84850281,46.16559603,"(46.16559603, 9.84850281)"
11644,Velocità Vento Scalare,m/s,108,Samolaco (ersaf),206,SO,Samolaco,via Vignola,5120391,1532923,9.42666611,46.236112,"(46.236112, 9.42666611)"
11646,Velocità Vento Scalare,m/s,110,Palidano di Gonzaga,22,MN,Gonzaga,strada Begozzo 9 - c/o ITA Strozzi,4980543,1639424,10.767532,44.96447231,"(44.96447231, 10.767532)"
11647,Velocità Vento,m/s,111,Moggio,"1,234",LC,Cassina Valsassina,SP 64 km10+900,5084533,1538610,9.49750669,45.91309714,"(45.91309714, 9.49750669)"
11648,Velocità Vento Scalare,m/s,114,Landriano (ersaf) *,88,PV,Landriano,c/o Cascina Marianna,5018638,1520741,9.26429397,45.32076661,"(45.32076661, 9.26429397)"
11649,Velocità Vento Scalare,m/s,1075,Edolo - via Morino 5,659,BS,Edolo,c/o centrale Enel,5114109,1603378,10.3388605,46.1725273,"(46.1725273, 10.3388605)"
11650,Velocità Vento Scalare,m/s,119,Cornalita,700,BG,San Giovanni Bianco,c\o agriturismo EDEN,5081200,1550237,9.64706978,45.88234925,"(45.88234925, 9.64706978)"
11651,Velocità Vento Scalare,m/s,125,Castello d`Agogna (ersaf) *,106,PV,Castello d'Agogna,SP 26 - c/o Ente Risi,5008922,1475121,8.68270731,45.23317633,"(45.23317633, 8.68270731)"
11652,Velocità Vento Scalare,m/s,127,Casatenovo tetto,360,LC,Casatenovo,via Monteregio 13,5061000,1524093,9.30914683,45.70195425,"(45.70195425, 9.30914683)"
11653,Velocità Vento,m/s,129,Capo di ponte,362,BS,Capo di Ponte,via Briscioli 42,5097897,1603931,10.34250956,46.02656822,"(46.02656822, 10.34250956)"
11654,Velocità Vento Scalare,m/s,132,Bergamo - Stezzano,211,BG,Bergamo,via Stezzano 24,5056562,1551349,9.65877947,45.66052617,"(45.66052617, 9.65877947)"
11655,Velocità Vento Scalare,m/s,134,Bargnano,93,BS,Corzano,via Silvio Pellico,5031679,1581299,10.03903128,45.43372814,"(45.43372814, 10.03903128)"
11656,Velocità Vento Scalare,m/s,136,Persico Dosimo,44,CR,Persico Dosimo,SP40 km14 - c/o ist. Agrario Stanga,5001693,1583242,10.05882758,45.16363125,"(45.16363125, 10.05882758)"
11657,Velocità Vento Scalare,m/s,137,Rivolta d` Adda (ersaf) *,102,CR,Rivolta d'Adda,c\o Ist. Spallanzani,5032437,1540748,9.52069894,45.44409211,"(45.44409211, 9.52069894)"
11658,Velocità Vento,m/s,139,Mantova Cerese,19,MN,Virgilio,via T.Nuvolari loc. Virgilio c/o campo sportivo,4997314,1641035,10.79265692,45.11504753,"(45.11504753, 10.79265692)"
11659,Velocità Vento Scalare,m/s,212,Canzo - M. Prasanto,"1,233",CO,Canzo,via San Miro,5077245,1524728,9.31813681,45.84814356,"(45.84814356, 9.31813681)"
11660,Velocità Vento Scalare,m/s,214,Bigarello,15,MN,Bigarello,via Carpaneta 7,5005643,1648276,10.887137,45.18849864,"(45.18849864, 10.887137)"
11661,Velocità Vento Scalare,m/s,832,Palù,"2,155",SO,Lanzada,SAN GIUSEPPE,5126947,1567978,9.88221942,46.29249997,"(46.29249997, 9.88221942)"
11662,Velocità Vento Scalare,m/s,833,Gerola - Pescegallo *,"1,845",SO,Gerola Alta,PESCEGALLO,5097009,1544831,9.57888786,46.02500064,"(46.02500064, 9.57888786)"
11663,Velocità Vento Scalare,m/s,835,Oga S. Colombano,"2,295",SO,Valdisotto,FORTE DI OGA,5146182,1603177,10.34333681,46.46111472,"(46.46111472, 10.34333681)"
11664,Velocità Vento Scalare,m/s,836,Aprica *,"1,950",SO,Aprica,MAGNOLTA,5111234,1589565,10.15944817,46.14860764,"(46.14860764, 10.15944817)"
11665,Velocità Vento Scalare,m/s,846,Pantano d`Avio *,"2,105",BS,Edolo,RIFUGIO GARIBALDI,5114565,1613558,10.47083922,46.17499883,"(46.17499883, 10.47083922)"
11666,Velocità Vento Scalare,m/s,847,Carisole,"1,950",BG,Carona,RIFUGIO MIRTILLO,5098976,1561712,9.79722861,46.04138761,"(46.04138761, 9.79722861)"
11667,Velocità Vento Scalare,m/s,848,La Vallaccia *,"2,655",SO,Livigno,LIVIGNO,5147863,1592569,10.20555831,46.47778008,"(46.47778008, 10.20555831)"
11668,Velocità Vento Scalare,m/s,900,Chiari *,140,BS,Chiari,CANALE TRAVAGLIATA,5041413,1573264,9.93777786,45.52222175,"(45.52222175, 9.93777786)"
11669,Velocità Vento Scalare,m/s,998,Laveno Molo (Comune Laveno),207,VA,Laveno Mombello,PIAZZA CADUTI DEL LAVORO,5084129,1470452,8.61868417,45.90991464,"(45.90991464, 8.61868417)"
11670,Velocità Vento Scalare,m/s,999,Poggio S.Elsa (Comune Laveno),951,VA,Laveno Mombello,POGGIO S.ELSA,5084036,1472514,8.64527508,45.90916289,"(45.90916289, 8.64527508)"
11671,Velocità Vento,m/s,1273,Bagni di Masino,"1,191",SO,Val Masino,via Bagni,5121292,1546007,9.59643936,46.24345747,"(46.24345747, 9.59643936)"
11827,Direzione Vento,°,102,S.Colombano al Lambro (ersaf) *,80,MI,San Colombano al Lambro,via Serafina - c/o Vigneto Sperimentale Moretto,5003859,1538227,9.48625681,45.18700408,"(45.18700408, 9.48625681)"
11828,Direzione Vento,°,106,Varzi (ersaf),500,PV,Varzi,Nivione,4963427,1515446,9.19503519,44.82391153,"(44.82391153, 9.19503519)"
11829,Direzione Vento,°,107,Sondrio (ersaf),307,SO,Sondrio,via Valeriana 32 - c/o Ist. Fondazione Fojanini,5112818,1565532,9.84850281,46.16559603,"(46.16559603, 9.84850281)"
11830,Direzione Vento,°,108,Samolaco (ersaf),206,SO,Samolaco,via Vignola,5120391,1532923,9.42666611,46.236112,"(46.236112, 9.42666611)"
11832,Direzione Vento,°,110,Palidano di Gonzaga,22,MN,Gonzaga,strada Begozzo 9 - c/o ITA Strozzi,4980543,1639424,10.767532,44.96447231,"(44.96447231, 10.767532)"
11833,Direzione Vento,°,111,Moggio,"1,234",LC,Cassina Valsassina,SP 64 km10+900,5084533,1538610,9.49750669,45.91309714,"(45.91309714, 9.49750669)"
11834,Direzione Vento,°,114,Landriano (ersaf) *,88,PV,Landriano,c/o Cascina Marianna,5018638,1520741,9.26429397,45.32076661,"(45.32076661, 9.26429397)"
11835,Direzione Vento Scalare,°,1075,Edolo - via Morino 5,659,BS,Edolo,c/o centrale Enel,5114109,1603378,10.3388605,46.1725273,"(46.1725273, 10.3388605)"
11836,Direzione Vento,°,119,Cornalita,700,BG,San Giovanni Bianco,c\o agriturismo EDEN,5081200,1550237,9.64706978,45.88234925,"(45.88234925, 9.64706978)"
11837,Direzione Vento Scalare,°,125,Castello d` Agogna (ersaf) *,106,PV,Castello d'Agogna,SP 26 - c/o Ente Risi,5008922,1475121,8.68270731,45.23317633,"(45.23317633, 8.68270731)"
11838,Direzione Vento,°,127,Casatenovo tetto,360,LC,Casatenovo,via Monteregio 13,5061000,1524093,9.30914683,45.70195425,"(45.70195425, 9.30914683)"
11839,Direzione Vento,°,129,Capo di ponte,362,BS,Capo di Ponte,via Briscioli 42,5097897,1603931,10.34250956,46.02656822,"(46.02656822, 10.34250956)"
11840,Direzione Vento,°,132,Bergamo - Stezzano,211,BG,Bergamo,via Stezzano 24,5056562,1551349,9.65877947,45.66052617,"(45.66052617, 9.65877947)"
11841,Direzione Vento,°,134,Bargnano,93,BS,Corzano,via Silvio Pellico,5031679,1581299,10.03903128,45.43372814,"(45.43372814, 10.03903128)"
11842,Direzione Vento,°,136,Persico Dosimo,44,CR,Persico Dosimo,SP40 km14 - c/o ist. Agrario Stanga,5001693,1583242,10.05882758,45.16363125,"(45.16363125, 10.05882758)"
11843,Direzione Vento,°,137,Rivolta d` Adda (ersaf) *,102,CR,Rivolta d'Adda,c\o Ist. Spallanzani,5032437,1540748,9.52069894,45.44409211,"(45.44409211, 9.52069894)"
11844,Direzione Vento,°,139,Mantova Cerese,19,MN,Virgilio,via T.Nuvolari loc. Virgilio c/o campo sportivo,4997314,1641035,10.79265692,45.11504753,"(45.11504753, 10.79265692)"
11845,Direzione Vento,°,141,Vertemate,310,CO,Vertemate con Minoprio,viale Raimondi 54 - c/o Fond. Minoprio,5062852,1506680,9.08549392,45.71901203,"(45.71901203, 9.08549392)"
11846,Direzione Vento,°,142,Caiolo,274,SO,Caiolo,via Palù - c/o aeroporto di Caiolo,5111588,1561222,9.79252269,46.15492878,"(46.15492878, 9.79252269)"
11847,Direzione Vento,°,143,Livigno - Passo Foscagno,"2,250",SO,Livigno,SS 301 km22+950 - c/o ripetitori RAI,5149715,1592690,10.20750306,46.49442656,"(46.49442656, 10.20750306)"
11848,Direzione Vento,°,144,Spluga,"1,915",SO,Madesimo,SS36 km143+500 - Stuetta c/o diga EDIPOWER,5146535,1526752,9.34812689,46.47166819,"(46.47166819, 9.34812689)"
11849,Direzione Vento,°,145,Darfo (shake up),222,BS,Darfo Boario Terme,via De Amicis 6 - c/o asilo nido,5080810,1591399,10.17736553,45.87460256,"(45.87460256, 10.17736553)"
11850,Direzione Vento,°,146,Passo S.Marco,"1,824",BG,Mezzoldo,SP8 km59+400 - c/o rifugio Passo S.Marco 2000,5098512,1548671,9.62865208,46.03826483,"(46.03826483, 9.62865208)"
11851,Direzione Vento,°,148,Arconate (shake Up),182,MI,Arconate,via De Gasperi ang. via Dell'Usignolo,5043918,1488109,8.84732669,45.54852147,"(45.54852147, 8.84732669)"
11852,Direzione Vento Scalare,°,212,Canzo - M. Prasanto,"1,233",CO,Canzo,via San Miro,5077245,1524728,9.31813681,45.84814356,"(45.84814356, 9.31813681)"
11853,Direzione Vento Scalare,°,214,Bigarello,15,MN,Bigarello,via Carpaneta 7,5005643,1648276,10.887137,45.18849864,"(45.18849864, 10.887137)"
11854,Direzione Vento Scalare,°,832,Palù,"2,155",SO,Lanzada,SAN GIUSEPPE,5126947,1567978,9.88221942,46.29249997,"(46.29249997, 9.88221942)"
11855,Direzione Vento Scalare,°,833,Gerola - Pescegallo *,"1,845",SO,Gerola Alta,PESCEGALLO,5097009,1544831,9.57888786,46.02500064,"(46.02500064, 9.57888786)"
11856,Direzione Vento Scalare,°,835,Oga S. Colombano,"2,295",SO,Valdisotto,FORTE DI OGA,5146182,1603177,10.34333681,46.46111472,"(46.46111472, 10.34333681)"
11857,Direzione Vento Scalare,°,836,Aprica *,"1,950",SO,Aprica,MAGNOLTA,5111234,1589565,10.15944817,46.14860764,"(46.14860764, 10.15944817)"
11858,Direzione Vento Scalare,°,846,Pantano d`Avio *,"2,105",BS,Edolo,RIFUGIO GARIBALDI,5114565,1613558,10.47083922,46.17499883,"(46.17499883, 10.47083922)"
11859,Direzione Vento Scalare,°,847,Carisole,"1,950",BG,Carona,RIFUGIO MIRTILLO,5098976,1561712,9.79722861,46.04138761,"(46.04138761, 9.79722861)"
11860,Direzione Vento Scalare,°,848,La Vallaccia *,"2,655",SO,Livigno,LIVIGNO,5147863,1592569,10.20555831,46.47778008,"(46.47778008, 10.20555831)"
11861,Direzione Vento Scalare,°,900,Chiari *,140,BS,Chiari,CANALE TRAVAGLIATA,5041413,1573264,9.93777786,45.52222175,"(45.52222175, 9.93777786)"
11862,Direzione Vento Scalare,°,998,Laveno Molo (Comune Laveno),207,VA,Laveno Mombello,PIAZZA CADUTI DEL LAVORO,5084129,1470452,8.61868417,45.90991464,"(45.90991464, 8.61868417)"
11863,Direzione Vento Scalare,°,999,Poggio S.Elsa (Comune Laveno),951,VA,Laveno Mombello,POGGIO S.ELSA,5084036,1472514,8.64527508,45.90916289,"(45.90916289, 8.64527508)"
11864,Direzione Vento,°,1202,Vercana,980,CO,Vercana,area demaniale -  loc. Monti di Vercana,5114325,1525085,9.32468906,46.18185467,"(46.18185467, 9.32468906)"
11865,Direzione Vento,°,1273,Bagni di Masino,"1,191",SO,Val Masino,via Bagni,5121292,1546007,9.59643936,46.24345747,"(46.24345747, 9.59643936)"
11984,Umidità Relativa,%,851,Cavacca *,"1,147",BS,Treviso Bresciano,CIMA FANE,5064515,1616687,10.49916675,45.72416486,"(45.72416486, 10.49916675)"
14001,Umidità Relativa,%,1077,Oltre il Colle,"1,138",BG,Oltre il Colle,c/o Serbatoio idrico Loc.Zambla Bassa,5082282,1561236,9.7892408,45.8905182,"(45.8905182, 9.7892408)"
14004,Direzione Vento,°,1077,Oltre il Colle,"1,138",BG,Oltre il Colle,c/o Serbatoio idrico Loc.Zambla Bassa,5082282,1561236,9.7892408,45.8905182,"(45.8905182, 9.7892408)"
14005,Velocità Vento,m/s,1077,Oltre il Colle,"1,138",BG,Oltre il Colle,c/o Serbatoio idrico Loc.Zambla Bassa,5082282,1561236,9.7892408,45.8905182,"(45.8905182, 9.7892408)"
14014,Temperatura,°C,1077,Oltre il Colle,"1,138",BG,Oltre il Colle,c/o Serbatoio idrico Loc.Zambla Bassa,5082282,1561236,9.7892408,45.8905182,"(45.8905182, 9.7892408)"
14018,Precipitazione,mm,1077,Oltre il Colle,"1,138",BG,Oltre il Colle,c/o Serbatoio idrico Loc.Zambla Bassa,5082282,1561236,9.7892408,45.8905182,"(45.8905182, 9.7892408)"
14019,Radiazione Globale,W/mq,1077,Oltre il Colle,"1,138",BG,Oltre il Colle,c/o Serbatoio idrico Loc.Zambla Bassa,5082282,1561236,9.7892408,45.8905182,"(45.8905182, 9.7892408)"
14030,Direzione Vento,°,1211,Castronno,379,VA,Castronno,via Belvedere,5066166,1486085,8.82076322,45.74873297,"(45.74873297, 8.82076322)"
14038,Radiazione Globale,W/mq,836,Aprica *,"1,950",SO,Aprica,MAGNOLTA,5111234,1589565,10.15944817,46.14860764,"(46.14860764, 10.15944817)"
14039,Umidità Relativa,%,836,Aprica *,"1,950",SO,Aprica,MAGNOLTA,5111234,1589565,10.15944817,46.14860764,"(46.14860764, 10.15944817)"
14047,Direzione Vento,°,150,Pieve S. Giacomo,39,CR,Pieve San Giacomo,loc. Silvelletta,4997188,1594028,10.19519169,45.12173258,"(45.12173258, 10.19519169)"
14055,Umidità Relativa,%,1324,Limone Sul Garda,75,BS,Limone sul Garda,c/o Campo Sportivo Comunale - via Fasse,5074165,1639117,10.79005556,45.80683333,"(45.80683333, 10.79005556)"
14058,Temperatura,°C,1324,Limone Sul Garda,75,BS,Limone sul Garda,c/o Campo Sportivo Comunale - via Fasse,5074165,1639117,10.79005556,45.80683333,"(45.80683333, 10.79005556)"
14061,Velocità Vento,m/s,1324,Limone Sul Garda,75,BS,Limone sul Garda,c/o Campo Sportivo Comunale - via Fasse,5074165,1639117,10.79005556,45.80683333,"(45.80683333, 10.79005556)"
14062,Direzione Vento,°,1324,Limone Sul Garda,75,BS,Limone sul Garda,c/o Campo Sportivo Comunale - via Fasse,5074165,1639117,10.79005556,45.80683333,"(45.80683333, 10.79005556)"
14072,Umidità Relativa,%,1325,Memmo,"1,069",BS,Collio,via Santella - Loc. Memmo Collio,5073951,1602237,10.31552778,45.81136111,"(45.81136111, 10.31552778)"
14075,Temperatura,°C,1325,Memmo,"1,069",BS,Collio,via Santella - Loc. Memmo Collio,5073951,1602237,10.31552778,45.81136111,"(45.81136111, 10.31552778)"
14078,Velocità Vento,m/s,1325,Memmo,"1,069",BS,Collio,via Santella - Loc. Memmo Collio,5073951,1602237,10.31552778,45.81136111,"(45.81136111, 10.31552778)"
14079,Direzione Vento,°,1325,Memmo,"1,069",BS,Collio,via Santella - Loc. Memmo Collio,5073951,1602237,10.31552778,45.81136111,"(45.81136111, 10.31552778)"
14089,Umidità Relativa,%,1326,Toscolano Maderno,70,BS,Toscolano Maderno,c/o Campo sportivo,5054944,1626044,10.61687842,45.63641172,"(45.63641172, 10.61687842)"
14092,Temperatura,°C,1326,Toscolano Maderno,70,BS,Toscolano Maderno,c/o Campo sportivo,5054944,1626044,10.61687842,45.63641172,"(45.63641172, 10.61687842)"
14095,Velocità Vento,m/s,1326,Toscolano Maderno,70,BS,Toscolano Maderno,c/o Campo sportivo,5054944,1626044,10.61687842,45.63641172,"(45.63641172, 10.61687842)"
14096,Direzione Vento,°,1326,Toscolano Maderno,70,BS,Toscolano Maderno,c/o Campo sportivo,5054944,1626044,10.61687842,45.63641172,"(45.63641172, 10.61687842)"
14110,Direzione Vento,°,147,Milano - Parco Nord,142,MI,Cinisello Balsamo,Cinisello Balsamo nel parco nord,5043277,1516078,9.20560494,45.54266736,"(45.54266736, 9.20560494)"
14118,Precipitazione,mm,1325,Memmo,"1,069",BS,Collio,via Santella - Loc. Memmo Collio,5073951,1602237,10.31552778,45.81136111,"(45.81136111, 10.31552778)"
14119,Precipitazione,mm,1324,Limone Sul Garda,75,BS,Limone sul Garda,c/o Campo Sportivo Comunale - via Fasse,5074165,1639117,10.79005556,45.80683333,"(45.80683333, 10.79005556)"
14120,Precipitazione,mm,1326,Toscolano Maderno,70,BS,Toscolano Maderno,c/o Campo sportivo,5054944,1626044,10.61687842,45.63641172,"(45.63641172, 10.61687842)"
14121,Precipitazione,mm,1327,Milano - via Rosellini,122,MI,Milano,via Rosellini,5037085,1515146,9.1934614,45.4869499,"(45.4869499, 9.1934614)"
14125,Temperatura,°C,1328,Teglio,357,SO,Teglio,Teglio - Località San Giacomo,5112179,1580209,10.03847892,46.15827664,"(46.15827664, 10.03847892)"
14128,Precipitazione,mm,1328,Teglio,357,SO,Teglio,Teglio - Località San Giacomo,5112179,1580209,10.03847892,46.15827664,"(46.15827664, 10.03847892)"
14130,Temperatura,°C,1329,Lavena Ponte Tresa - via della Boschiva,269,VA,Lavena Ponte Tresa,c/o Campo sportivo - via della Boschiva,5090934,1488425,8.8505993,45.9710121,"(45.9710121, 8.8505993)"
14131,Precipitazione,mm,1329,Lavena Ponte Tresa - via della Boschiva,269,VA,Lavena Ponte Tresa,c/o Campo sportivo - via della Boschiva,5090934,1488425,8.8505993,45.9710121,"(45.9710121, 8.8505993)"
14132,Umidità Relativa,%,1329,Lavena Ponte Tresa - via della Boschiva,269,VA,Lavena Ponte Tresa,c/o Campo sportivo - via della Boschiva,5090934,1488425,8.8505993,45.9710121,"(45.9710121, 8.8505993)"
14139,Temperatura,°C,1330,Olgiate Comasco - Via Repubblica,400,CO,Olgiate Comasco,Via Repubblica,5068854,1497899,8.9729786,45.7723808,"(45.7723808, 8.9729786)"
14145,Umidità Relativa,%,1330,Olgiate Comasco - Via Repubblica,400,CO,Olgiate Comasco,Via Repubblica,5068854,1497899,8.9729786,45.7723808,"(45.7723808, 8.9729786)"
14148,Radiazione Globale,W/mq,1325,Memmo,"1,069",BS,Collio,via Santella - Loc. Memmo Collio,5073951,1602237,10.31552778,45.81136111,"(45.81136111, 10.31552778)"
14159,Direzione Vento,°,140,Motta Visconti (shake Up),100,MI,Motta Visconti,via A. de Gasperi - c/o campo sportivo comunale,5014293,1499131,8.98857592,45.28196356,"(45.28196356, 8.98857592)"
14161,Radiazione Globale,W/mq,1202,Vercana,980,CO,Vercana,area demaniale -  loc. Monti di Vercana,5114325,1525085,9.32468906,46.18185467,"(46.18185467, 9.32468906)"
14165,Umidità Relativa,%,1219,Casalbuttano *,56,CR,Casalbuttano ed Uniti,CASALBUTTANO ED UNITI,5011856,1575627,9.96349494,45.25595928,"(45.25595928, 9.96349494)"
14171,Precipitazione,mm,1341,Bosisio Parini,266,LC,Bosisio Parini,Bosisio Parini,5072279,1522322,9.28691933,45.80353008,"(45.80353008, 9.28691933)"
14180,Radiazione Globale,W/mq,1342,Lago Reguzzo,"2,445",SO,Ponte in Valtellina,Ponte in Valtellina,5105248,1575015,,,
14182,Direzione Vento,°,1342,Lago Reguzzo,"2,445",SO,Ponte in Valtellina,Ponte in Valtellina,5105248,1575015,,,
14186,Velocità Vento,m/s,1342,Lago Reguzzo,"2,445",SO,Ponte in Valtellina,Ponte in Valtellina,5105248,1575015,,,
14191,Umidità Relativa,%,1342,Lago Reguzzo,"2,445",SO,Ponte in Valtellina,Ponte in Valtellina,5105248,1575015,,,
14194,Temperatura,°C,1342,Lago Reguzzo,"2,445",SO,Ponte in Valtellina,Ponte in Valtellina,5105248,1575015,,,
14197,Precipitazione,mm,1342,Lago Reguzzo,"2,445",SO,Ponte in Valtellina,Ponte in Valtellina,5105248,1575015,,,
14207,Radiazione Globale,W/mq,1343,Passo Marinelli,"3,050",SO,Lanzada,Chiesa Valmalenco,5133330,1570441,,,
14209,Direzione Vento,°,1343,Passo Marinelli,"3,050",SO,Lanzada,Chiesa Valmalenco,5133330,1570441,,,
14213,Velocità Vento,m/s,1343,Passo Marinelli,"3,050",SO,Lanzada,Chiesa Valmalenco,5133330,1570441,,,
14218,Umidità Relativa,%,1343,Passo Marinelli,"3,050",SO,Lanzada,Chiesa Valmalenco,5133330,1570441,,,
14221,Temperatura,°C,1343,Passo Marinelli,"3,050",SO,Lanzada,Chiesa Valmalenco,5133330,1570441,,,
14224,Precipitazione,mm,1343,Passo Marinelli,"3,050",SO,Lanzada,Chiesa Valmalenco,5133330,1570441,,,
14229,Direzione Vento,°,1345,Piazzatorre,366,BG,Piazzatorre,CENTRO SPORTIVO -v.dei Tigli,5093568,1553716,,,
14234,Velocità Vento,m/s,1345,Piazzatorre,366,BG,Piazzatorre,CENTRO SPORTIVO -v.dei Tigli,5093568,1553716,,,
14238,Umidità Relativa,%,1345,Piazzatorre,366,BG,Piazzatorre,CENTRO SPORTIVO -v.dei Tigli,5093568,1553716,,,
14241,Precipitazione,mm,1345,Piazzatorre,366,BG,Piazzatorre,CENTRO SPORTIVO -v.dei Tigli,5093568,1553716,,,
14242,Temperatura,°C,1345,Piazzatorre,366,BG,Piazzatorre,CENTRO SPORTIVO -v.dei Tigli,5093568,1553716,,,
14248,Direzione Vento,°,1346,MADESIMO ALPE MOTTA,"1,880",SO,Campodolcino,,5141149,1528370,9.36887356,46.42313106,"(46.42313106, 9.36887356)"
14253,Precipitazione,mm,1346,MADESIMO ALPE MOTTA,"1,880",SO,Campodolcino,,5141149,1528370,9.36887356,46.42313106,"(46.42313106, 9.36887356)"
14255,Radiazione Globale,W/mq,1346,MADESIMO ALPE MOTTA,"1,880",SO,Campodolcino,,5141149,1528370,9.36887356,46.42313106,"(46.42313106, 9.36887356)"
14257,Temperatura,°C,1346,MADESIMO ALPE MOTTA,"1,880",SO,Campodolcino,,5141149,1528370,9.36887356,46.42313106,"(46.42313106, 9.36887356)"
14265,Umidità Relativa,%,1346,MADESIMO ALPE MOTTA,"1,880",SO,Campodolcino,,5141149,1528370,9.36887356,46.42313106,"(46.42313106, 9.36887356)"
14269,Velocità Vento,m/s,1346,MADESIMO ALPE MOTTA,"1,880",SO,Campodolcino,,5141149,1528370,9.36887356,46.42313106,"(46.42313106, 9.36887356)"
14275,Direzione Vento,°,1347,Piani di Bobbio,"1,713",LC,Barzio,Piani di Bobbio,5089690,1538861,9.50116161,45.95949567,"(45.95949567, 9.50116161)"
14280,Precipitazione,mm,1347,Piani di Bobbio,"1,713",LC,Barzio,Piani di Bobbio,5089690,1538861,9.50116161,45.95949567,"(45.95949567, 9.50116161)"
14282,Radiazione Globale,W/mq,1347,Piani di Bobbio,"1,713",LC,Barzio,Piani di Bobbio,5089690,1538861,9.50116161,45.95949567,"(45.95949567, 9.50116161)"
14284,Temperatura,°C,1347,Piani di Bobbio,"1,713",LC,Barzio,Piani di Bobbio,5089690,1538861,9.50116161,45.95949567,"(45.95949567, 9.50116161)"
14292,Umidità Relativa,%,1347,Piani di Bobbio,"1,713",LC,Barzio,Piani di Bobbio,5089690,1538861,9.50116161,45.95949567,"(45.95949567, 9.50116161)"
14296,Velocità Vento,m/s,1347,Piani di Bobbio,"1,713",LC,Barzio,Piani di Bobbio,5089690,1538861,9.50116161,45.95949567,"(45.95949567, 9.50116161)"
14317,Temperatura,°C,823,Piazza Brembana (IP radio) *,510,BG,Piazza Brembana,PIAZZA BREMBANA,5088301,1552172,9.67277767,45.94611233,"(45.94611233, 9.67277767)"
14320,Umidità Relativa,%,823,Piazza Brembana (IP radio) *,510,BG,Piazza Brembana,PIAZZA BREMBANA,5088301,1552172,9.67277767,45.94611233,"(45.94611233, 9.67277767)"
14328,Direzione Vento,°,166,Mantova - Lunetta 2 (meteo),25,MN,Mantova,campo sportivo Stefano Filippi,5002140,1643388,10.82394014,45.15799358,"(45.15799358, 10.82394014)"
14339,Direzione Vento Scalare,°,133,Bema,800,SO,Bema,pressi  ripetitori RAI,5105988,1544010,9.569112,46.1058615,"(46.1058615, 9.569112)"
14340,Velocità Vento Scalare,m/s,133,Bema,800,SO,Bema,pressi  ripetitori RAI,5105988,1544010,9.569112,46.1058615,"(46.1058615, 9.569112)"
14348,Temperatura,°C,1359,Lago Della Vacca,"2,401",BS,Breno,,5090261,1611962,10.44445247,45.95659733,"(45.95659733, 10.44445247)"
14351,Umidità Relativa,%,1359,Lago Della Vacca,"2,401",BS,Breno,,5090261,1611962,10.44445247,45.95659733,"(45.95659733, 10.44445247)"
14355,Direzione Vento,°,1359,Lago Della Vacca,"2,401",BS,Breno,,5090261,1611962,10.44445247,45.95659733,"(45.95659733, 10.44445247)"
14360,Velocità Vento,m/s,1359,Lago Della Vacca,"2,401",BS,Breno,,5090261,1611962,10.44445247,45.95659733,"(45.95659733, 10.44445247)"
14365,Precipitazione,mm,1359,Lago Della Vacca,"2,401",BS,Breno,,5090261,1611962,10.44445247,45.95659733,"(45.95659733, 10.44445247)"
14367,Temperatura,°C,1360,Clusone SP 671,564,BG,Clusone,SP 671,5081264,1572437,9.93314133,45.88094706,"(45.88094706, 9.93314133)"
14370,Umidità Relativa,%,1360,Clusone SP 671,564,BG,Clusone,SP 671,5081264,1572437,9.93314133,45.88094706,"(45.88094706, 9.93314133)"
14374,Direzione Vento,°,1360,Clusone SP 671,564,BG,Clusone,SP 671,5081264,1572437,9.93314133,45.88094706,"(45.88094706, 9.93314133)"
14379,Velocità Vento,m/s,1360,Clusone SP 671,564,BG,Clusone,SP 671,5081264,1572437,9.93314133,45.88094706,"(45.88094706, 9.93314133)"
14384,Precipitazione,mm,1360,Clusone SP 671,564,BG,Clusone,SP 671,5081264,1572437,9.93314133,45.88094706,"(45.88094706, 9.93314133)"
14385,Radiazione Globale,W/mq,1360,Clusone SP 671,564,BG,Clusone,SP 671,5081264,1572437,9.93314133,45.88094706,"(45.88094706, 9.93314133)"
14390,Direzione Vento,°,100,Milano - Lambrate,120,MI,Milano,parco Lambro - acquedotto,5038191,1520147,9.25751572,45.49678183,"(45.49678183, 9.25751572)"
14391,Velocità Vento Scalare,m/s,100,Milano - Lambrate,120,MI,Milano,parco Lambro - acquedotto,5038191,1520147,9.25751572,45.49678183,"(45.49678183, 9.25751572)"
14399,Temperatura,°C,1365,Bione San Bernardo,911,BS,Bione,,5057952,1603423,,,
14402,Umidità Relativa,%,1365,Bione San Bernardo,911,BS,Bione,,5057952,1603423,,,
14405,Radiazione Globale,W/mq,1365,Bione San Bernardo,911,BS,Bione,,5057952,1603423,,,
14406,Precipitazione,mm,1365,Bione San Bernardo,911,BS,Bione,,5057952,1603423,,,
14408,Direzione Vento,°,1365,Bione San Bernardo,911,BS,Bione,,5057952,1603423,,,
14413,Velocità Vento,m/s,1365,Bione San Bernardo,911,BS,Bione,,5057952,1603423,,,
14443,Precipitazione,mm,1366,Porlezza,291,CO,Porlezza,sommità sponda torrente,5098275,1510922,9.140555,46.03778,"(46.03778, 9.140555)"
14445,Temperatura,°C,1366,Porlezza,291,CO,Porlezza,sommità sponda torrente,5098275,1510922,9.140555,46.03778,"(46.03778, 9.140555)"
14446,Umidità Relativa,%,1366,Porlezza,291,CO,Porlezza,sommità sponda torrente,5098275,1510922,9.140555,46.03778,"(46.03778, 9.140555)"
14451,Radiazione Globale,W/mq,1366,Porlezza,291,CO,Porlezza,sommità sponda torrente,5098275,1510922,9.140555,46.03778,"(46.03778, 9.140555)"
14452,Direzione Vento,°,1366,Porlezza,291,CO,Porlezza,sommità sponda torrente,5098275,1510922,9.140555,46.03778,"(46.03778, 9.140555)"
14453,Velocità Vento,m/s,1366,Porlezza,291,CO,Porlezza,sommità sponda torrente,5098275,1510922,9.140555,46.03778,"(46.03778, 9.140555)"
14465,Direzione Vento,°,1367,Bagolino,775,BS,Bagolino,tornante SP669,5077162,1612801,10.452199,45.83860244,"(45.83860244, 10.452199)"
14466,Velocità Vento,m/s,1367,Bagolino,775,BS,Bagolino,tornante SP669,5077162,1612801,10.452199,45.83860244,"(45.83860244, 10.452199)"
14473,Umidità Relativa,%,1367,Bagolino,775,BS,Bagolino,tornante SP669,5077162,1612801,10.452199,45.83860244,"(45.83860244, 10.452199)"
14476,Precipitazione,mm,1367,Bagolino,775,BS,Bagolino,tornante SP669,5077162,1612801,10.452199,45.83860244,"(45.83860244, 10.452199)"
14477,Radiazione Globale,W/mq,1367,Bagolino,775,BS,Bagolino,tornante SP669,5077162,1612801,10.452199,45.83860244,"(45.83860244, 10.452199)"
14478,Temperatura,°C,1367,Bagolino,775,BS,Bagolino,tornante SP669,5077162,1612801,10.452199,45.83860244,"(45.83860244, 10.452199)"
14499,Precipitazione,mm,1371,Brembilla,468,BG,Brembilla,,5073667,1547360,,,
14500,Temperatura,°C,1371,Brembilla,468,BG,Brembilla,,5073667,1547360,,,
14501,Umidità Relativa,%,1371,Brembilla,468,BG,Brembilla,,5073667,1547360,,,
14502,Direzione Vento,°,1371,Brembilla,468,BG,Brembilla,,5073667,1547360,,,
14503,Velocità Vento,m/s,1371,Brembilla,468,BG,Brembilla,,5073667,1547360,,,
14517,Precipitazione,mm,1372,Garzeno,581,CO,Garzeno,V.le Parco Rimembranze,5108782,1519172,9.2478209,46.1321526,"(46.1321526, 9.2478209)"
14518,Temperatura,°C,1372,Garzeno,581,CO,Garzeno,V.le Parco Rimembranze,5108782,1519172,9.2478209,46.1321526,"(46.1321526, 9.2478209)"
14519,Umidità Relativa,%,1372,Garzeno,581,CO,Garzeno,V.le Parco Rimembranze,5108782,1519172,9.2478209,46.1321526,"(46.1321526, 9.2478209)"
14527,Precipitazione,mm,1375,Varano Borghi,241,VA,Varano Borghi,Boffalora,5068153,1477658,,,
14528,Temperatura,°C,1375,Varano Borghi,241,VA,Varano Borghi,Boffalora,5068153,1477658,,,
14529,Umidità Relativa,%,1375,Varano Borghi,241,VA,Varano Borghi,Boffalora,5068153,1477658,,,
14530,Direzione Vento,°,1375,Varano Borghi,241,VA,Varano Borghi,Boffalora,5068153,1477658,,,
14531,Velocità Vento,m/s,1375,Varano Borghi,241,VA,Varano Borghi,Boffalora,5068153,1477658,,,
14545,Precipitazione,mm,1376,Puegnago Del Garda-Laghi Di Sovenigo,291,BS,Puegnago sul Garda,Laghi di Sovenigo,5048481,1617080,10.5003309,45.5798378,"(45.5798378, 10.5003309)"
14546,Temperatura,°C,1376,Puegnago Del Garda-Laghi Di Sovenigo,291,BS,Puegnago sul Garda,Laghi di Sovenigo,5048481,1617080,10.5003309,45.5798378,"(45.5798378, 10.5003309)"
14547,Umidità Relativa,%,1376,Puegnago Del Garda-Laghi Di Sovenigo,291,BS,Puegnago sul Garda,Laghi di Sovenigo,5048481,1617080,10.5003309,45.5798378,"(45.5798378, 10.5003309)"
14548,Direzione Vento,°,1376,Puegnago Del Garda-Laghi Di Sovenigo,291,BS,Puegnago sul Garda,Laghi di Sovenigo,5048481,1617080,10.5003309,45.5798378,"(45.5798378, 10.5003309)"
14549,Velocità Vento,m/s,1376,Puegnago Del Garda-Laghi Di Sovenigo,291,BS,Puegnago sul Garda,Laghi di Sovenigo,5048481,1617080,10.5003309,45.5798378,"(45.5798378, 10.5003309)"
14567,Precipitazione,mm,1378,Tignale-Oldesio,374,BS,Tignale,Oldesio,5065803,1633924,10.7209063,45.7326393,"(45.7326393, 10.7209063)"
14568,Temperatura,°C,1378,Tignale-Oldesio,374,BS,Tignale,Oldesio,5065803,1633924,10.7209063,45.7326393,"(45.7326393, 10.7209063)"
14569,Umidità Relativa,%,1378,Tignale-Oldesio,374,BS,Tignale,Oldesio,5065803,1633924,10.7209063,45.7326393,"(45.7326393, 10.7209063)"
14570,Direzione Vento,°,1378,Tignale-Oldesio,374,BS,Tignale,Oldesio,5065803,1633924,10.7209063,45.7326393,"(45.7326393, 10.7209063)"
14571,Velocità Vento,m/s,1378,Tignale-Oldesio,374,BS,Tignale,Oldesio,5065803,1633924,10.7209063,45.7326393,"(45.7326393, 10.7209063)"
14584,Radiazione Globale,W/mq,1378,Tignale-Oldesio,374,BS,Tignale,Oldesio,5065803,1633924,10.7209063,45.7326393,"(45.7326393, 10.7209063)"
14605,Precipitazione,mm,1380,Tremezzo,309,CO,Tremezzo,Serbatoio Idrico Comunale,5092726,1516607,9.2140589,45.9877167,"(45.9877167, 9.2140589)"
14606,Temperatura,°C,1380,Tremezzo,309,CO,Tremezzo,Serbatoio Idrico Comunale,5092726,1516607,9.2140589,45.9877167,"(45.9877167, 9.2140589)"
14607,Umidità Relativa,%,1380,Tremezzo,309,CO,Tremezzo,Serbatoio Idrico Comunale,5092726,1516607,9.2140589,45.9877167,"(45.9877167, 9.2140589)"
14627,Umidità Relativa,%,1206,Cavaria,274,VA,Cavaria con Premezzo,via Cantalupa c/o Prot.civile e circolo anziani,5059587,1485053,8.80769797,45.68949617,"(45.68949617, 8.80769797)"
14634,Direzione Vento,°,1233,Lurago Marinone *,296,CO,Lurago Marinone,area comunale ex depuratore zona industriale,5061887,1497877,8.97238367,45.71035675,"(45.71035675, 8.97238367)"
14635,Velocità Vento,m/s,1233,Lurago Marinone *,296,CO,Lurago Marinone,area comunale ex depuratore zona industriale,5061887,1497877,8.97238367,45.71035675,"(45.71035675, 8.97238367)"
14645,Temperatura,°C,1382,VEDDASCA - Monte Cadrigna,"1,302",VA,Veddasca,Monte Cadrigna,5102075,1482148,,,
14648,Umidità Relativa,%,1382,VEDDASCA - Monte Cadrigna,"1,302",VA,Veddasca,Monte Cadrigna,5102075,1482148,,,
14653,Direzione Vento,°,1382,VEDDASCA - Monte Cadrigna,"1,302",VA,Veddasca,Monte Cadrigna,5102075,1482148,,,
14654,Velocità Vento,m/s,1382,VEDDASCA - Monte Cadrigna,"1,302",VA,Veddasca,Monte Cadrigna,5102075,1482148,,,
14661,Precipitazione,mm,1382,VEDDASCA - Monte Cadrigna,"1,302",VA,Veddasca,Monte Cadrigna,5102075,1482148,,,
14664,Precipitazione,mm,1383,SAREZZO-Via d.Fonte,290,BS,Sarezzo,Via d.Fonte,5057845,1592496,10.1869402,45.6677818,"(45.6677818, 10.1869402)"
14665,Temperatura,°C,1383,SAREZZO-Via d.Fonte,290,BS,Sarezzo,Via d.Fonte,5057845,1592496,10.1869402,45.6677818,"(45.6677818, 10.1869402)"
14667,Umidità Relativa,%,1383,SAREZZO-Via d.Fonte,290,BS,Sarezzo,Via d.Fonte,5057845,1592496,10.1869402,45.6677818,"(45.6677818, 10.1869402)"
14670,Direzione Vento,°,1383,SAREZZO-Via d.Fonte,290,BS,Sarezzo,Via d.Fonte,5057845,1592496,10.1869402,45.6677818,"(45.6677818, 10.1869402)"
14671,Velocità Vento,m/s,1383,SAREZZO-Via d.Fonte,290,BS,Sarezzo,Via d.Fonte,5057845,1592496,10.1869402,45.6677818,"(45.6677818, 10.1869402)"
14684,Temperatura,°C,1420,GORDONA-CERMINE,"1,362",SO,Gordona,Avert Cermeno,5126516,1526153,9.3391666,46.2913895,"(46.2913895, 9.3391666)"
14687,Umidità Relativa,%,1420,GORDONA-CERMINE,"1,362",SO,Gordona,Avert Cermeno,5126516,1526153,9.3391666,46.2913895,"(46.2913895, 9.3391666)"
14692,Direzione Vento,°,1420,GORDONA-CERMINE,"1,362",SO,Gordona,Avert Cermeno,5126516,1526153,9.3391666,46.2913895,"(46.2913895, 9.3391666)"
14693,Velocità Vento,m/s,1420,GORDONA-CERMINE,"1,362",SO,Gordona,Avert Cermeno,5126516,1526153,9.3391666,46.2913895,"(46.2913895, 9.3391666)"
14700,Precipitazione,mm,1420,GORDONA-CERMINE,"1,362",SO,Gordona,Avert Cermeno,5126516,1526153,9.3391666,46.2913895,"(46.2913895, 9.3391666)"
14704,Direzione Vento Scalare,°,856,Fortunago *,501,PV,Fortunago,POLINAGO,4973268,1515419,9.19499417,44.91250111,"(44.91250111, 9.19499417)"
14705,Velocità Vento Scalare,m/s,856,Fortunago *,501,PV,Fortunago,POLINAGO,4973268,1515419,9.19499417,44.91250111,"(44.91250111, 9.19499417)"
14712,Precipitazione,mm,868,Peregallo *,180,MB,Lesmo,V.RISORGIMENTO-PEREGALLO,5053579,1523339,9.29910483,45.63518697,"(45.63518697, 9.29910483)"
14716,Direzione Vento scalare,,1545,San Siro,"1,285",CO,San Siro,Alpe Rescascia,5102090,1518457,9.2383327,46.0719452,"(46.0719452, 9.2383327)"
14717,Velocità Vento scalare,,1545,San Siro,"1,285",CO,San Siro,Alpe Rescascia,5102090,1518457,9.2383327,46.0719452,"(46.0719452, 9.2383327)"
14724,Precipitazione,mm,1545,San Siro,"1,285",CO,San Siro,Alpe Rescascia,5102090,1518457,9.2383327,46.0719452,"(46.0719452, 9.2383327)"
14725,Temperatura,°C,1545,San Siro,"1,285",CO,San Siro,Alpe Rescascia,5102090,1518457,9.2383327,46.0719452,"(46.0719452, 9.2383327)"
14728,Umidità Relativa,%,1545,San Siro,"1,285",CO,San Siro,Alpe Rescascia,5102090,1518457,9.2383327,46.0719452,"(46.0719452, 9.2383327)"
14733,Direzione Vento scalare,,857,Passo del Giovà,"1,363",PV,Santa Margherita di Staffora,PASSO DEL GIOVA,4947507,1517419,9.21944889,44.68055183,"(44.68055183, 9.21944889)"
14734,Velocità Vento scalare,,857,Passo del Giovà,"1,363",PV,Santa Margherita di Staffora,PASSO DEL GIOVA,4947507,1517419,9.21944889,44.68055183,"(44.68055183, 9.21944889)"
14741,Precipitazione,mm,1546,RHO-Scalo Fiorenza (prato),143,MI,Rho,"via Triboniano, 220",5040499,1506894,9.08777,45.5178,"(45.5178, 9.08777)"
14742,Temperatura,°C,1546,RHO-Scalo Fiorenza (prato),143,MI,Rho,"via Triboniano, 220",5040499,1506894,9.08777,45.5178,"(45.5178, 9.08777)"
14745,Umidità Relativa,%,1546,RHO-Scalo Fiorenza (prato),143,MI,Rho,"via Triboniano, 220",5040499,1506894,9.08777,45.5178,"(45.5178, 9.08777)"
14750,Direzione Vento scalare,,1547,RHO-Scalo Fiorenza (tetto),143,MI,Rho,"via Triboniano, 220",5040441,1507182,9.091389,45.51722,"(45.51722, 9.091389)"
14751,Velocità Vento scalare,,1547,RHO-Scalo Fiorenza (tetto),143,MI,Rho,"via Triboniano, 220",5040441,1507182,9.091389,45.51722,"(45.51722, 9.091389)"
104949,Temperatura,°C,1240,Vittorio Veneto - Cene *,361,BG,Cene,cabina gas metano comunale,5070410,1563922,9.82188244,45.78454989,"(45.78454989, 9.82188244)"
104952,Precipitazione,mm,1240,Vittorio Veneto - Cene *,361,BG,Cene,cabina gas metano comunale,5070410,1563922,9.82188244,45.78454989,"(45.78454989, 9.82188244)"
